{"type": "FeatureCollection", "features": [{"type": "Feature", "properties": {"name": "India", "iso": "IND", "source": "Survey of India (urbanmorph/geodata, SOI_States, dissolved)"}, "geometry": {"type": "MultiPolygon", "coordinates": [[[[68.616, 23.726], [68.618, 23.738], [68.649, 23.739], [68.635, 23.761], [68.652, 23.794], [68.681, 23.795], [68.711, 23.83], [68.693, 23.844], [68.581, 23.821], [68.527, 23.746], [68.421, 23.733], [68.387, 23.595], [68.278, 23.56], [68.188, 23.582], [68.185, 23.596], [68.208, 23.586], [68.178, 23.614], [68.186, 23.645], [68.208, 23.651], [68.183, 23.655], [68.207, 23.669], [68.182, 23.722], [68.203, 23.767], [68.207, 23.872], [68.28, 23.931], [68.333, 23.925], [68.348, 23.974], [68.374, 23.985], [68.39, 23.967], [68.753, 23.971], [68.765, 24.296], [68.808, 24.314], [68.831, 24.312], [68.865, 24.213], [68.88, 24.217], [68.907, 24.28], [68.945, 24.302], [68.985, 24.228], [69.005, 24.223], [69.095, 24.274], [69.194, 24.236], [69.313, 24.282], [69.494, 24.268], [69.594, 24.292], [69.731, 24.171], [70.025, 24.171], [70.067, 24.199], [70.11, 24.295], [70.326, 24.352], [70.368, 24.351], [70.561, 24.421], [70.602, 24.408], [70.562, 24.354], [70.585, 24.29], [70.571, 24.252], [70.714, 24.216], [70.805, 24.221], [70.907, 24.259], [70.876, 24.28], [70.879, 24.301], [70.987, 24.365], [71.042, 24.351], [71.082, 24.393], [71.12, 24.402], [71.126, 24.42], [71.103, 24.436], [70.999, 24.444], [71.005, 24.523], [70.987, 24.543], [70.986, 24.595], [71.009, 24.635], [71.075, 24.662], [71.096, 24.689], [71.065, 24.717], [71.026, 24.809], [70.938, 24.939], [70.889, 25.148], [70.752, 25.278], [70.737, 25.333], [70.665, 25.397], [70.678, 25.525], [70.667, 25.531], [70.674, 25.676], [70.66, 25.702], [70.609, 25.715], [70.53, 25.683], [70.387, 25.674], [70.269, 25.714], [70.247, 25.762], [70.174, 25.828], [70.1, 25.938], [70.083, 26.083], [70.141, 26.156], [70.175, 26.252], [70.164, 26.295], [70.185, 26.374], [70.174, 26.551], [70.117, 26.587], [70.056, 26.601], [69.887, 26.579], [69.823, 26.589], [69.72, 26.655], [69.51, 26.744], [69.484, 26.805], [69.513, 27.01], [69.586, 27.183], [69.862, 27.402], [69.934, 27.498], [70.026, 27.563], [70.132, 27.806], [70.227, 27.901], [70.296, 27.936], [70.372, 28.012], [70.506, 28.037], [70.589, 28.01], [70.677, 27.922], [70.684, 27.828], [70.74, 27.742], [70.759, 27.721], [70.872, 27.706], [70.963, 27.729], [71.206, 27.835], [71.383, 27.873], [71.666, 27.878], [71.898, 27.961], [71.927, 28.122], [72.004, 28.219], [72.132, 28.313], [72.206, 28.394], [72.299, 28.67], [72.391, 28.77], [72.733, 28.948], [72.946, 29.028], [73.004, 29.153], [73.084, 29.236], [73.282, 29.572], [73.397, 29.946], [73.597, 30.019], [73.807, 30.068], [73.972, 30.198], [73.957, 30.276], [73.931, 30.32], [73.88, 30.36], [73.974, 30.444], [73.926, 30.439], [73.934, 30.49], [73.964, 30.456], [73.964, 30.485], [73.982, 30.504], [74.02, 30.514], [74.012, 30.534], [74.031, 30.527], [74.039, 30.543], [74.057, 30.519], [74.072, 30.523], [74.091, 30.549], [74.073, 30.555], [74.102, 30.579], [74.096, 30.612], [74.118, 30.608], [74.127, 30.635], [74.148, 30.631], [74.193, 30.665], [74.233, 30.725], [74.286, 30.736], [74.26, 30.773], [74.302, 30.779], [74.295, 30.795], [74.32, 30.847], [74.382, 30.86], [74.361, 30.874], [74.366, 30.893], [74.423, 30.908], [74.41, 30.923], [74.429, 30.931], [74.414, 30.93], [74.416, 30.94], [74.546, 30.992], [74.542, 31.017], [74.568, 31.055], [74.597, 31.038], [74.671, 31.054], [74.696, 31.074], [74.689, 31.128], [74.659, 31.134], [74.636, 31.118], [74.631, 31.133], [74.603, 31.134], [74.611, 31.099], [74.571, 31.081], [74.551, 31.086], [74.548, 31.122], [74.51, 31.132], [74.526, 31.212], [74.517, 31.228], [74.533, 31.25], [74.521, 31.269], [74.542, 31.304], [74.526, 31.312], [74.549, 31.335], [74.552, 31.364], [74.583, 31.379], [74.602, 31.421], [74.655, 31.426], [74.639, 31.444], [74.652, 31.457], [74.628, 31.477], [74.636, 31.485], [74.575, 31.501], [74.584, 31.521], [74.613, 31.527], [74.616, 31.569], [74.555, 31.608], [74.535, 31.678], [74.487, 31.715], [74.504, 31.74], [74.559, 31.758], [74.558, 31.805], [74.608, 31.89], [74.636, 31.884], [74.667, 31.923], [74.719, 31.924], [74.72, 31.941], [74.757, 31.944], [74.756, 31.956], [74.819, 31.959], [74.829, 31.999], [74.88, 32.032], [74.869, 32.042], [74.88, 32.054], [74.928, 32.066], [75.012, 32.036], [75.069, 32.067], [75.105, 32.059], [75.123, 32.081], [75.174, 32.067], [75.198, 32.083], [75.202, 32.12], [75.24, 32.091], [75.279, 32.117], [75.285, 32.151], [75.322, 32.179], [75.316, 32.208], [75.372, 32.226], [75.382, 32.269], [75.32, 32.297], [75.338, 32.32], [75.323, 32.344], [75.288, 32.354], [75.285, 32.372], [75.258, 32.371], [75.256, 32.389], [75.194, 32.4], [75.19, 32.426], [75.131, 32.409], [75.101, 32.478], [75.086, 32.469], [75.028, 32.497], [75.019, 32.466], [74.951, 32.447], [74.938, 32.471], [74.897, 32.468], [74.877, 32.493], [74.819, 32.498], [74.795, 32.476], [74.688, 32.487], [74.691, 32.533], [74.663, 32.545], [74.674, 32.568], [74.653, 32.563], [74.659, 32.597], [74.639, 32.615], [74.695, 32.661], [74.653, 32.697], [74.705, 32.842], [74.641, 32.819], [74.635, 32.807], [74.658, 32.788], [74.632, 32.776], [74.634, 32.75], [74.619, 32.761], [74.577, 32.748], [74.563, 32.76], [74.512, 32.746], [74.512, 32.765], [74.486, 32.764], [74.459, 32.788], [74.415, 32.785], [74.391, 32.763], [74.355, 32.767], [74.314, 32.797], [74.303, 32.83], [74.22, 32.849], [74.211, 32.873], [74.179, 32.889], [74.069, 32.91], [74.058, 32.935], [74.0, 32.935], [74.006, 32.955], [73.972, 32.967], [73.965, 32.987], [73.826, 33.004], [73.826, 32.977], [73.79, 32.967], [73.795, 33.004], [73.749, 33.034], [73.743, 33.066], [73.633, 33.092], [73.631, 33.14], [73.649, 33.137], [73.664, 33.161], [73.668, 33.202], [73.648, 33.223], [73.634, 33.208], [73.638, 33.23], [73.607, 33.274], [73.614, 33.293], [73.589, 33.324], [73.598, 33.338], [73.578, 33.329], [73.57, 33.343], [73.584, 33.356], [73.565, 33.366], [73.603, 33.419], [73.587, 33.423], [73.596, 33.439], [73.632, 33.448], [73.602, 33.497], [73.619, 33.495], [73.611, 33.513], [73.642, 33.529], [73.624, 33.541], [73.629, 33.571], [73.605, 33.589], [73.612, 33.604], [73.567, 33.618], [73.578, 33.638], [73.567, 33.668], [73.603, 33.715], [73.595, 33.751], [73.56, 33.781], [73.594, 33.89], [73.548, 33.937], [73.516, 33.999], [73.491, 34.14], [73.499, 34.211], [73.473, 34.252], [73.481, 34.289], [73.457, 34.276], [73.43, 34.346], [73.408, 34.35], [73.396, 34.372], [73.428, 34.426], [73.431, 34.521], [73.454, 34.571], [73.532, 34.571], [73.556, 34.59], [73.611, 34.585], [73.65, 34.562], [73.654, 34.601], [73.695, 34.65], [73.659, 34.673], [73.73, 34.772], [73.772, 34.796], [73.822, 34.792], [73.838, 34.813], [73.919, 34.812], [73.93, 34.832], [73.961, 34.839], [73.967, 34.864], [74.03, 34.876], [74.037, 34.919], [74.071, 34.935], [74.059, 34.993], [74.11, 35.016], [74.067, 35.046], [74.071, 35.058], [74.101, 35.099], [74.134, 35.11], [74.106, 35.126], [74.112, 35.149], [74.034, 35.147], [74.003, 35.184], [73.957, 35.168], [73.925, 35.204], [73.861, 35.207], [73.808, 35.239], [73.771, 35.236], [73.734, 35.209], [73.708, 35.222], [73.725, 35.273], [73.695, 35.318], [73.695, 35.369], [73.727, 35.419], [73.792, 35.454], [73.779, 35.523], [73.73, 35.529], [73.721, 35.549], [73.659, 35.548], [73.628, 35.569], [73.562, 35.546], [73.528, 35.567], [73.502, 35.558], [73.477, 35.572], [73.398, 35.557], [73.363, 35.597], [73.269, 35.624], [73.133, 35.711], [73.127, 35.776], [73.149, 35.831], [73.084, 35.877], [73.029, 35.847], [72.987, 35.86], [72.918, 35.839], [72.892, 35.845], [72.891, 35.874], [72.839, 35.867], [72.819, 35.882], [72.784, 35.841], [72.761, 35.832], [72.727, 35.853], [72.684, 35.823], [72.628, 35.858], [72.585, 35.859], [72.558, 35.898], [72.518, 35.905], [72.513, 35.939], [72.535, 35.951], [72.539, 35.985], [72.56, 35.987], [72.585, 36.025], [72.517, 36.067], [72.528, 36.11], [72.562, 36.14], [72.536, 36.173], [72.547, 36.205], [72.574, 36.224], [72.585, 36.257], [72.612, 36.269], [72.685, 36.244], [72.681, 36.271], [72.759, 36.299], [72.816, 36.356], [72.854, 36.366], [72.876, 36.395], [72.86, 36.436], [72.908, 36.461], [72.979, 36.457], [72.978, 36.512], [73.052, 36.533], [73.097, 36.606], [73.074, 36.629], [73.068, 36.701], [73.116, 36.684], [73.171, 36.724], [73.201, 36.696], [73.238, 36.712], [73.294, 36.704], [73.348, 36.716], [73.352, 36.735], [73.421, 36.743], [73.498, 36.713], [73.579, 36.722], [73.593, 36.693], [73.683, 36.687], [73.71, 36.712], [73.775, 36.702], [73.796, 36.719], [73.872, 36.701], [73.885, 36.73], [73.868, 36.766], [73.837, 36.795], [73.802, 36.794], [73.798, 36.818], [73.759, 36.816], [73.706, 36.838], [73.706, 36.858], [73.667, 36.881], [73.671, 36.912], [73.729, 36.898], [73.751, 36.91], [73.801, 36.887], [73.82, 36.903], [73.859, 36.897], [73.893, 36.875], [73.915, 36.883], [73.961, 36.839], [74.047, 36.811], [74.086, 36.842], [74.133, 36.848], [74.156, 36.911], [74.249, 36.894], [74.42, 36.995], [74.52, 36.996], [74.543, 36.961], [74.564, 36.958], [74.58, 37.021], [74.568, 37.052], [74.681, 37.087], [74.707, 37.087], [74.747, 37.02], [74.769, 37.041], [74.839, 37.036], [74.835, 37.005], [74.916, 36.92], [75.016, 36.991], [75.109, 36.962], [75.211, 37.05], [75.336, 37.063], [75.354, 36.988], [75.418, 36.972], [75.407, 36.908], [75.45, 36.889], [75.463, 36.83], [75.613, 36.775], [75.744, 36.608], [75.807, 36.563], [75.852, 36.558], [75.945, 36.512], [76.071, 36.484], [76.164, 36.406], [76.267, 36.359], [76.354, 36.369], [76.437, 36.31], [76.449, 36.272], [76.437, 36.258], [76.481, 36.22], [76.594, 36.178], [76.656, 36.192], [76.711, 36.14], [76.72, 36.098], [76.784, 36.072], [76.814, 36.041], [76.732, 35.955], [76.783, 35.905], [76.807, 35.85], [76.861, 35.836], [76.936, 35.789], [77.001, 35.776], [77.116, 35.798], [77.152, 35.769], [77.176, 35.768], [77.18, 35.73], [77.213, 35.733], [77.258, 35.704], [77.287, 35.723], [77.321, 35.701], [77.336, 35.72], [77.366, 35.715], [77.412, 35.656], [77.438, 35.656], [77.44, 35.602], [77.472, 35.584], [77.465, 35.55], [77.483, 35.53], [77.431, 35.514], [77.389, 35.539], [77.332, 35.53], [77.385, 35.474], [77.444, 35.459], [77.496, 35.478], [77.629, 35.465], [77.653, 35.481], [77.685, 35.467], [77.729, 35.477], [77.736, 35.521], [77.786, 35.488], [77.829, 35.505], [77.912, 35.461], [77.929, 35.49], [77.985, 35.448], [77.939, 35.507], [77.968, 35.572], [77.958, 35.605], [78.001, 35.582], [78.056, 35.582], [78.084, 35.552], [78.137, 35.537], [78.165, 35.552], [78.17, 35.625], [78.197, 35.623], [78.212, 35.666], [78.266, 35.647], [78.285, 35.664], [78.277, 35.718], [78.404, 35.736], [78.443, 35.784], [78.534, 35.763], [78.646, 35.821], [78.673, 35.854], [78.786, 35.869], [78.839, 35.856], [78.925, 35.868], [78.969, 35.89], [79.032, 35.848], [79.165, 35.838], [79.213, 35.878], [79.204, 35.928], [79.231, 35.972], [79.358, 35.992], [79.41, 35.986], [79.44, 35.894], [79.536, 35.88], [79.751, 35.797], [79.899, 35.775], [79.968, 35.825], [80.016, 35.826], [80.129, 35.657], [80.213, 35.639], [80.312, 35.588], [80.315, 35.536], [80.345, 35.461], [80.298, 35.417], [80.297, 35.353], [80.243, 35.208], [80.185, 35.131], [80.187, 35.008], [80.127, 34.873], [80.075, 34.805], [80.065, 34.693], [79.945, 34.661], [79.878, 34.675], [79.777, 34.61], [79.794, 34.581], [79.77, 34.538], [79.821, 34.514], [79.816, 34.483], [79.791, 34.467], [79.598, 34.487], [79.522, 34.464], [79.532, 34.409], [79.569, 34.401], [79.569, 34.32], [79.597, 34.278], [79.592, 34.236], [79.54, 34.191], [79.513, 34.201], [79.494, 34.185], [79.496, 34.124], [79.421, 34.076], [79.415, 34.042], [79.437, 34.013], [79.416, 33.999], [79.374, 34.027], [79.283, 34.028], [79.173, 34.058], [79.148, 34.055], [79.138, 34.018], [79.113, 34.009], [79.001, 34.034], [78.953, 34.013], [78.918, 33.964], [79.013, 33.783], [79.06, 33.776], [79.016, 33.702], [79.046, 33.674], [79.078, 33.686], [79.1, 33.616], [78.903, 33.622], [78.915, 33.606], [78.906, 33.574], [78.944, 33.526], [78.927, 33.454], [78.978, 33.336], [79.108, 33.289], [79.224, 33.296], [79.446, 33.258], [79.443, 33.2], [79.373, 33.106], [79.38, 33.028], [79.325, 33.012], [79.368, 32.983], [79.369, 32.966], [79.398, 32.962], [79.538, 32.786], [79.594, 32.759], [79.61, 32.723], [79.567, 32.67], [79.537, 32.66], [79.429, 32.524], [79.385, 32.523], [79.373, 32.56], [79.305, 32.586], [79.26, 32.523], [79.182, 32.474], [79.125, 32.465], [79.135, 32.432], [79.094, 32.377], [79.045, 32.387], [79.004, 32.375], [78.971, 32.336], [78.807, 32.444], [78.759, 32.568], [78.782, 32.596], [78.743, 32.655], [78.751, 32.693], [78.709, 32.656], [78.648, 32.644], [78.605, 32.591], [78.566, 32.615], [78.451, 32.578], [78.407, 32.526], [78.461, 32.504], [78.461, 32.462], [78.496, 32.422], [78.534, 32.415], [78.485, 32.349], [78.483, 32.281], [78.461, 32.242], [78.559, 32.249], [78.588, 32.236], [78.615, 32.209], [78.614, 32.175], [78.596, 32.158], [78.618, 32.115], [78.657, 32.111], [78.719, 32.036], [78.789, 31.993], [78.778, 31.935], [78.75, 31.904], [78.74, 31.837], [78.71, 31.787], [78.741, 31.758], [78.728, 31.742], [78.754, 31.686], [78.798, 31.682], [78.807, 31.647], [78.853, 31.607], [78.728, 31.515], [78.736, 31.481], [78.767, 31.486], [78.813, 31.45], [78.817, 31.419], [78.792, 31.396], [78.859, 31.366], [78.855, 31.323], [78.899, 31.263], [78.933, 31.253], [78.948, 31.32], [79.011, 31.357], [79.062, 31.461], [79.127, 31.435], [79.199, 31.357], [79.246, 31.33], [79.239, 31.314], [79.272, 31.283], [79.252, 31.243], [79.293, 31.221], [79.317, 31.137], [79.399, 31.108], [79.408, 31.077], [79.425, 31.071], [79.425, 31.03], [79.519, 31.027], [79.553, 30.96], [79.603, 30.933], [79.664, 30.967], [79.665, 30.983], [79.717, 30.976], [79.753, 31.008], [79.816, 30.974], [79.863, 30.975], [79.89, 30.919], [79.91, 30.915], [79.929, 30.882], [79.962, 30.89], [80.042, 30.836], [80.056, 30.842], [80.111, 30.779], [80.178, 30.804], [80.215, 30.749], [80.24, 30.762], [80.251, 30.737], [80.236, 30.69], [80.2, 30.683], [80.197, 30.662], [80.221, 30.642], [80.212, 30.622], [80.227, 30.579], [80.258, 30.559], [80.283, 30.572], [80.386, 30.515], [80.416, 30.525], [80.539, 30.449], [80.598, 30.479], [80.752, 30.394], [80.822, 30.316], [81.033, 30.246], [81.027, 30.228], [81.043, 30.205], [80.96, 30.179], [80.918, 30.19], [80.92, 30.214], [80.903, 30.215], [80.868, 30.174], [80.875, 30.126], [80.761, 30.05], [80.745, 30.004], [80.719, 30.001], [80.675, 29.957], [80.602, 29.958], [80.574, 29.924], [80.553, 29.851], [80.507, 29.823], [80.494, 29.796], [80.435, 29.806], [80.407, 29.795], [80.397, 29.759], [80.366, 29.748], [80.384, 29.675], [80.42, 29.638], [80.408, 29.596], [80.378, 29.561], [80.342, 29.553], [80.358, 29.533], [80.35, 29.519], [80.287, 29.477], [80.302, 29.453], [80.242, 29.443], [80.242, 29.411], [80.275, 29.393], [80.28, 29.347], [80.317, 29.315], [80.291, 29.232], [80.297, 29.205], [80.286, 29.196], [80.249, 29.221], [80.241, 29.203], [80.272, 29.141], [80.233, 29.118], [80.183, 29.137], [80.143, 29.1], [80.125, 29.013], [80.135, 29.007], [80.118, 28.982], [80.101, 28.987], [80.058, 28.917], [80.075, 28.824], [80.118, 28.829], [80.216, 28.756], [80.257, 28.754], [80.257, 28.729], [80.317, 28.7], [80.326, 28.666], [80.361, 28.635], [80.451, 28.63], [80.469, 28.584], [80.518, 28.552], [80.531, 28.573], [80.503, 28.665], [80.54, 28.691], [80.569, 28.688], [80.591, 28.68], [80.589, 28.648], [80.668, 28.642], [80.677, 28.604], [80.696, 28.603], [80.69, 28.588], [80.715, 28.568], [80.769, 28.566], [80.789, 28.525], [80.866, 28.49], [80.862, 28.504], [80.896, 28.507], [80.915, 28.458], [80.914, 28.468], [80.931, 28.458], [80.943, 28.469], [80.932, 28.459], [80.952, 28.448], [80.98, 28.455], [80.965, 28.445], [80.979, 28.434], [81.017, 28.451], [81.013, 28.438], [81.034, 28.428], [81.018, 28.415], [81.034, 28.399], [81.036, 28.414], [81.08, 28.385], [81.211, 28.361], [81.234, 28.325], [81.233, 28.289], [81.321, 28.198], [81.321, 28.169], [81.302, 28.165], [81.328, 28.148], [81.318, 28.134], [81.371, 28.143], [81.374, 28.177], [81.447, 28.161], [81.45, 28.141], [81.484, 28.119], [81.478, 28.083], [81.624, 28.002], [81.698, 27.988], [81.885, 27.857], [81.926, 27.86], [81.968, 27.929], [82.07, 27.924], [82.121, 27.866], [82.208, 27.844], [82.449, 27.679], [82.708, 27.723], [82.712, 27.665], [82.737, 27.643], [82.735, 27.61], [82.756, 27.588], [82.736, 27.502], [82.929, 27.501], [82.954, 27.468], [83.035, 27.449], [83.188, 27.454], [83.272, 27.383], [83.272, 27.353], [83.318, 27.33], [83.359, 27.343], [83.409, 27.413], [83.384, 27.436], [83.402, 27.458], [83.388, 27.48], [83.614, 27.469], [83.864, 27.347], [83.883, 27.377], [83.833, 27.425], [83.848, 27.446], [83.875, 27.435], [83.997, 27.446], [84.027, 27.434], [84.095, 27.489], [84.098, 27.517], [84.146, 27.519], [84.149, 27.486], [84.205, 27.47], [84.209, 27.443], [84.254, 27.454], [84.292, 27.385], [84.622, 27.337], [84.691, 27.215], [84.674, 27.096], [84.646, 27.076], [84.643, 27.046], [84.757, 27.003], [84.773, 27.018], [84.794, 26.996], [84.825, 27.021], [84.892, 26.97], [84.963, 26.961], [84.979, 26.94], [84.968, 26.916], [85.061, 26.887], [85.031, 26.874], [85.024, 26.854], [85.191, 26.87], [85.177, 26.81], [85.211, 26.758], [85.335, 26.742], [85.408, 26.791], [85.452, 26.781], [85.479, 26.802], [85.496, 26.797], [85.498, 26.812], [85.566, 26.841], [85.576, 26.861], [85.586, 26.847], [85.624, 26.874], [85.721, 26.82], [85.734, 26.796], [85.732, 26.654], [85.802, 26.624], [85.818, 26.603], [85.851, 26.609], [85.851, 26.568], [85.929, 26.617], [85.948, 26.614], [85.96, 26.651], [86.028, 26.667], [86.139, 26.629], [86.136, 26.606], [86.192, 26.615], [86.196, 26.594], [86.218, 26.588], [86.253, 26.617], [86.333, 26.619], [86.499, 26.542], [86.542, 26.539], [86.57, 26.497], [86.693, 26.451], [86.731, 26.423], [86.766, 26.459], [86.834, 26.439], [86.894, 26.462], [86.892, 26.486], [86.93, 26.49], [86.932, 26.517], [87.015, 26.532], [87.045, 26.587], [87.072, 26.586], [87.092, 26.45], [87.163, 26.404], [87.261, 26.409], [87.266, 26.374], [87.313, 26.372], [87.341, 26.348], [87.358, 26.361], [87.369, 26.408], [87.464, 26.44], [87.548, 26.418], [87.61, 26.381], [87.652, 26.393], [87.65, 26.406], [87.678, 26.416], [87.678, 26.435], [87.734, 26.408], [87.765, 26.41], [87.79, 26.469], [87.849, 26.436], [87.888, 26.487], [87.91, 26.458], [87.899, 26.449], [87.925, 26.445], [87.927, 26.418], [87.992, 26.393], [88.007, 26.361], [88.031, 26.365], [88.034, 26.392], [88.096, 26.439], [88.092, 26.463], [88.107, 26.475], [88.09, 26.507], [88.098, 26.538], [88.16, 26.636], [88.187, 26.749], [88.174, 26.865], [88.136, 26.899], [88.145, 26.922], [88.12, 26.951], [88.134, 26.986], [88.092, 27.005], [88.078, 27.035], [88.038, 27.036], [88.021, 27.088], [87.987, 27.119], [88.019, 27.171], [88.012, 27.216], [88.032, 27.286], [88.067, 27.336], [88.042, 27.373], [88.051, 27.413], [88.075, 27.433], [88.044, 27.496], [88.082, 27.584], [88.145, 27.665], [88.156, 27.736], [88.178, 27.746], [88.197, 27.791], [88.174, 27.82], [88.202, 27.837], [88.196, 27.854], [88.14, 27.877], [88.12, 27.916], [88.145, 27.964], [88.205, 27.942], [88.208, 27.962], [88.237, 27.971], [88.251, 27.942], [88.352, 27.99], [88.399, 27.978], [88.431, 28.008], [88.468, 28.017], [88.496, 28.054], [88.524, 28.035], [88.551, 28.038], [88.553, 28.081], [88.619, 28.098], [88.61, 28.129], [88.672, 28.072], [88.756, 28.076], [88.836, 28.015], [88.837, 27.929], [88.87, 27.916], [88.888, 27.856], [88.88, 27.829], [88.856, 27.815], [88.865, 27.743], [88.838, 27.706], [88.848, 27.668], [88.815, 27.646], [88.791, 27.575], [88.764, 27.565], [88.793, 27.529], [88.777, 27.468], [88.806, 27.407], [88.838, 27.379], [88.861, 27.387], [88.884, 27.343], [88.919, 27.321], [88.903, 27.273], [88.803, 27.248], [88.788, 27.184], [88.765, 27.177], [88.746, 27.144], [88.802, 27.139], [88.87, 27.11], [88.877, 26.944], [88.922, 26.994], [88.952, 26.968], [88.944, 26.934], [88.98, 26.917], [89.022, 26.941], [89.051, 26.916], [89.049, 26.899], [89.096, 26.892], [89.101, 26.843], [89.134, 26.808], [89.262, 26.814], [89.318, 26.851], [89.379, 26.862], [89.39, 26.842], [89.439, 26.84], [89.47, 26.803], [89.56, 26.813], [89.566, 26.799], [89.65, 26.777], [89.644, 26.749], [89.617, 26.729], [89.624, 26.718], [89.658, 26.719], [89.672, 26.74], [89.724, 26.722], [89.753, 26.735], [89.771, 26.701], [89.863, 26.701], [89.863, 26.737], [89.898, 26.724], [90.05, 26.73], [90.195, 26.773], [90.188, 26.807], [90.225, 26.855], [90.3, 26.848], [90.348, 26.875], [90.357, 26.901], [90.417, 26.905], [90.547, 26.817], [90.634, 26.794], [90.647, 26.777], [90.676, 26.784], [90.717, 26.768], [90.992, 26.791], [91.054, 26.781], [91.098, 26.822], [91.237, 26.812], [91.337, 26.781], [91.376, 26.795], [91.408, 26.84], [91.495, 26.791], [91.626, 26.821], [91.69, 26.806], [91.824, 26.864], [91.859, 26.913], [91.892, 26.919], [91.984, 26.858], [92.057, 26.847], [92.103, 26.867], [92.121, 26.96], [92.104, 27.004], [92.078, 27.017], [92.082, 27.041], [92.044, 27.051], [92.031, 27.081], [92.027, 27.168], [92.058, 27.19], [92.073, 27.233], [92.038, 27.257], [92.074, 27.278], [92.12, 27.272], [92.123, 27.287], [92.065, 27.327], [92.048, 27.363], [92.058, 27.4], [92.016, 27.481], [91.953, 27.46], [91.849, 27.486], [91.825, 27.468], [91.767, 27.465], [91.715, 27.475], [91.695, 27.505], [91.652, 27.483], [91.612, 27.544], [91.582, 27.557], [91.566, 27.584], [91.584, 27.608], [91.562, 27.632], [91.573, 27.661], [91.629, 27.699], [91.645, 27.769], [91.615, 27.822], [91.567, 27.818], [91.556, 27.856], [91.663, 27.853], [91.71, 27.808], [91.761, 27.8], [91.821, 27.816], [91.862, 27.74], [91.928, 27.723], [91.994, 27.771], [92.051, 27.764], [92.219, 27.87], [92.278, 27.869], [92.313, 27.788], [92.385, 27.801], [92.39, 27.821], [92.416, 27.831], [92.456, 27.814], [92.503, 27.854], [92.556, 27.824], [92.615, 27.895], [92.658, 27.902], [92.742, 27.993], [92.721, 28.031], [92.667, 28.064], [92.688, 28.127], [92.815, 28.211], [92.836, 28.179], [92.897, 28.205], [92.923, 28.24], [92.963, 28.259], [92.997, 28.229], [93.028, 28.269], [93.022, 28.31], [93.218, 28.326], [93.224, 28.405], [93.18, 28.435], [93.278, 28.501], [93.302, 28.599], [93.325, 28.609], [93.333, 28.639], [93.406, 28.651], [93.446, 28.675], [93.47, 28.653], [93.496, 28.686], [93.522, 28.659], [93.619, 28.653], [93.74, 28.685], [93.784, 28.663], [93.851, 28.707], [93.936, 28.666], [93.962, 28.694], [93.973, 28.743], [94.01, 28.773], [93.987, 28.804], [94.007, 28.841], [94.164, 28.957], [94.186, 29.029], [94.224, 29.088], [94.294, 29.145], [94.362, 29.153], [94.375, 29.185], [94.438, 29.223], [94.551, 29.221], [94.631, 29.341], [94.741, 29.275], [94.793, 29.215], [94.804, 29.162], [94.879, 29.175], [94.916, 29.152], [94.958, 29.156], [95.022, 29.134], [94.975, 29.157], [94.98, 29.173], [94.993, 29.171], [95.095, 29.14], [95.106, 29.119], [95.242, 29.111], [95.242, 29.064], [95.26, 29.054], [95.288, 29.063], [95.411, 29.031], [95.44, 29.037], [95.466, 29.066], [95.481, 29.143], [95.531, 29.13], [95.527, 29.216], [95.572, 29.223], [95.583, 29.261], [95.619, 29.25], [95.777, 29.362], [95.782, 29.341], [95.831, 29.359], [95.862, 29.395], [95.942, 29.388], [96.043, 29.461], [96.081, 29.461], [96.141, 29.402], [96.176, 29.345], [96.18, 29.308], [96.235, 29.242], [96.29, 29.245], [96.354, 29.292], [96.379, 29.267], [96.342, 29.178], [96.245, 29.166], [96.211, 29.148], [96.174, 29.099], [96.102, 29.079], [96.141, 29.058], [96.171, 28.999], [96.172, 28.97], [96.142, 28.957], [96.135, 28.935], [96.161, 28.898], [96.22, 28.93], [96.327, 29.028], [96.423, 29.038], [96.514, 29.074], [96.465, 28.983], [96.481, 28.959], [96.509, 28.966], [96.526, 28.882], [96.609, 28.78], [96.579, 28.712], [96.467, 28.675], [96.487, 28.639], [96.474, 28.622], [96.425, 28.582], [96.402, 28.581], [96.4, 28.559], [96.345, 28.554], [96.319, 28.526], [96.362, 28.48], [96.253, 28.407], [96.317, 28.378], [96.363, 28.386], [96.395, 28.336], [96.417, 28.341], [96.457, 28.414], [96.505, 28.411], [96.571, 28.452], [96.641, 28.458], [96.741, 28.414], [96.77, 28.367], [96.835, 28.361], [96.89, 28.378], [96.926, 28.337], [96.988, 28.303], [97.075, 28.35], [97.106, 28.347], [97.171, 28.286], [97.295, 28.262], [97.401, 28.192], [97.401, 28.181], [97.364, 28.189], [97.328, 28.15], [97.347, 28.11], [97.31, 28.075], [97.326, 28.053], [97.381, 28.059], [97.376, 28.04], [97.413, 28.015], [97.373, 27.968], [97.374, 27.88], [97.309, 27.915], [97.249, 27.899], [97.104, 27.77], [97.094, 27.74], [97.036, 27.742], [96.983, 27.664], [96.942, 27.661], [96.897, 27.609], [96.897, 27.582], [96.912, 27.581], [96.913, 27.544], [96.93, 27.524], [96.903, 27.453], [96.962, 27.402], [96.962, 27.373], [96.998, 27.319], [97.028, 27.308], [97.089, 27.238], [97.09, 27.214], [97.164, 27.142], [97.139, 27.091], [97.1, 27.108], [97.063, 27.091], [97.03, 27.132], [96.985, 27.154], [96.874, 27.181], [96.855, 27.21], [96.885, 27.226], [96.885, 27.26], [96.847, 27.271], [96.848, 27.29], [96.797, 27.346], [96.705, 27.372], [96.697, 27.358], [96.605, 27.366], [96.596, 27.334], [96.551, 27.318], [96.524, 27.287], [96.441, 27.306], [96.387, 27.285], [96.307, 27.294], [96.271, 27.272], [96.228, 27.279], [96.023, 27.18], [95.946, 27.052], [95.87, 27.013], [95.802, 27.015], [95.755, 26.954], [95.745, 26.896], [95.724, 26.882], [95.667, 26.903], [95.632, 26.874], [95.608, 26.813], [95.543, 26.835], [95.529, 26.825], [95.507, 26.808], [95.483, 26.747], [95.459, 26.744], [95.431, 26.701], [95.336, 26.674], [95.303, 26.651], [95.259, 26.656], [95.257, 26.677], [95.234, 26.682], [95.21, 26.649], [95.149, 26.616], [95.154, 26.583], [95.108, 26.542], [95.115, 26.519], [95.062, 26.45], [95.084, 26.447], [95.104, 26.421], [95.1, 26.394], [95.132, 26.378], [95.127, 26.254], [95.115, 26.233], [95.143, 26.212], [95.122, 26.185], [95.118, 26.101], [95.186, 26.073], [95.126, 25.986], [95.089, 25.95], [95.031, 25.931], [95.012, 25.898], [95.009, 25.867], [95.05, 25.8], [95.049, 25.759], [94.936, 25.668], [94.915, 25.608], [94.882, 25.591], [94.899, 25.565], [94.846, 25.562], [94.808, 25.493], [94.783, 25.48], [94.751, 25.494], [94.718, 25.469], [94.684, 25.466], [94.67, 25.418], [94.635, 25.395], [94.635, 25.358], [94.585, 25.267], [94.576, 25.214], [94.606, 25.181], [94.737, 25.134], [94.744, 25.037], [94.697, 24.968], [94.713, 24.934], [94.688, 24.888], [94.632, 24.839], [94.619, 24.78], [94.629, 24.757], [94.605, 24.712], [94.585, 24.705], [94.579, 24.724], [94.55, 24.713], [94.55, 24.659], [94.529, 24.618], [94.462, 24.558], [94.425, 24.486], [94.403, 24.475], [94.398, 24.407], [94.367, 24.395], [94.38, 24.375], [94.354, 24.334], [94.327, 24.328], [94.315, 24.253], [94.293, 24.236], [94.283, 24.179], [94.26, 24.162], [94.252, 24.082], [94.187, 23.941], [94.165, 23.93], [94.154, 23.853], [94.121, 23.833], [94.084, 23.881], [93.93, 23.95], [93.807, 23.927], [93.754, 24.005], [93.623, 24.011], [93.592, 23.961], [93.56, 23.982], [93.55, 23.959], [93.505, 23.942], [93.464, 23.973], [93.407, 24.08], [93.349, 24.105], [93.354, 24.091], [93.329, 24.081], [93.339, 24.062], [93.326, 24.046], [93.338, 24.04], [93.326, 24.029], [93.339, 24.021], [93.329, 23.985], [93.351, 23.942], [93.393, 23.929], [93.385, 23.848], [93.403, 23.807], [93.392, 23.757], [93.411, 23.729], [93.407, 23.707], [93.437, 23.687], [93.417, 23.648], [93.429, 23.588], [93.41, 23.564], [93.419, 23.54], [93.395, 23.504], [93.388, 23.446], [93.402, 23.384], [93.388, 23.359], [93.356, 23.352], [93.373, 23.329], [93.363, 23.279], [93.389, 23.217], [93.368, 23.144], [93.386, 23.134], [93.356, 23.116], [93.339, 23.074], [93.352, 23.07], [93.294, 23.006], [93.229, 23.012], [93.21, 23.049], [93.185, 23.06], [93.156, 23.043], [93.136, 23.061], [93.127, 23.044], [93.12, 23.002], [93.141, 22.99], [93.138, 22.951], [93.165, 22.91], [93.131, 22.906], [93.111, 22.818], [93.095, 22.806], [93.107, 22.753], [93.095, 22.672], [93.14, 22.592], [93.107, 22.527], [93.128, 22.524], [93.139, 22.455], [93.185, 22.428], [93.202, 22.263], [93.142, 22.245], [93.161, 22.197], [93.151, 22.176], [93.124, 22.174], [93.111, 22.204], [93.038, 22.195], [93.049, 22.169], [93.037, 22.144], [93.06, 22.101], [93.005, 22.104], [92.995, 22.032], [93.007, 21.982], [92.981, 21.98], [92.952, 22.03], [92.927, 22.016], [92.936, 22.006], [92.906, 21.94], [92.891, 22.011], [92.864, 22.027], [92.863, 22.063], [92.841, 22.059], [92.81, 22.096], [92.7, 22.155], [92.69, 22.072], [92.682, 22.103], [92.68, 22.012], [92.652, 22.016], [92.635, 21.983], [92.603, 21.978], [92.613, 21.99], [92.593, 22.037], [92.603, 22.061], [92.563, 22.128], [92.578, 22.143], [92.606, 22.123], [92.609, 22.164], [92.595, 22.175], [92.581, 22.322], [92.552, 22.409], [92.551, 22.513], [92.522, 22.56], [92.539, 22.589], [92.529, 22.665], [92.513, 22.733], [92.474, 22.746], [92.449, 22.895], [92.434, 22.886], [92.42, 22.918], [92.401, 22.912], [92.398, 22.93], [92.372, 22.936], [92.392, 23.056], [92.358, 23.103], [92.368, 23.127], [92.347, 23.236], [92.404, 23.241], [92.381, 23.285], [92.386, 23.306], [92.364, 23.323], [92.379, 23.362], [92.356, 23.372], [92.357, 23.411], [92.317, 23.472], [92.308, 23.578], [92.287, 23.596], [92.296, 23.622], [92.273, 23.642], [92.291, 23.681], [92.279, 23.716], [92.241, 23.721], [92.233, 23.668], [92.216, 23.652], [92.203, 23.706], [92.178, 23.708], [92.171, 23.739], [92.149, 23.736], [92.063, 23.645], [92.009, 23.664], [91.978, 23.733], [91.957, 23.734], [91.958, 23.694], [91.934, 23.685], [91.97, 23.478], [91.937, 23.467], [91.943, 23.435], [91.9, 23.441], [91.845, 23.405], [91.825, 23.352], [91.762, 23.303], [91.81, 23.165], [91.813, 23.099], [91.836, 23.093], [91.806, 23.063], [91.775, 23.07], [91.781, 23.029], [91.769, 23.041], [91.721, 22.987], [91.645, 22.985], [91.619, 22.938], [91.6, 22.954], [91.614, 22.958], [91.606, 22.972], [91.577, 22.965], [91.542, 22.999], [91.55, 23.038], [91.53, 23.038], [91.53, 23.092], [91.503, 23.13], [91.515, 23.145], [91.491, 23.158], [91.492, 23.178], [91.508, 23.184], [91.471, 23.196], [91.484, 23.209], [91.451, 23.219], [91.47, 23.228], [91.445, 23.247], [91.454, 23.26], [91.418, 23.255], [91.409, 23.285], [91.411, 23.256], [91.398, 23.265], [91.409, 23.248], [91.393, 23.246], [91.401, 23.229], [91.386, 23.228], [91.38, 23.185], [91.417, 23.065], [91.396, 23.056], [91.347, 23.102], [91.323, 23.158], [91.327, 23.252], [91.3, 23.292], [91.313, 23.306], [91.29, 23.319], [91.32, 23.36], [91.291, 23.351], [91.294, 23.375], [91.28, 23.377], [91.249, 23.49], [91.201, 23.52], [91.213, 23.55], [91.194, 23.547], [91.16, 23.611], [91.156, 23.671], [91.199, 23.647], [91.209, 23.686], [91.154, 23.688], [91.157, 23.742], [91.197, 23.751], [91.219, 23.736], [91.227, 23.792], [91.254, 23.837], [91.23, 23.881], [91.246, 23.913], [91.233, 23.927], [91.276, 23.923], [91.264, 23.944], [91.285, 23.982], [91.288, 23.968], [91.3, 23.972], [91.304, 23.998], [91.38, 23.975], [91.373, 24.003], [91.397, 24.05], [91.375, 24.108], [91.473, 24.102], [91.586, 24.073], [91.595, 24.097], [91.638, 24.103], [91.634, 24.138], [91.66, 24.19], [91.648, 24.218], [91.665, 24.234], [91.688, 24.162], [91.759, 24.142], [91.745, 24.247], [91.816, 24.21], [91.845, 24.226], [91.855, 24.212], [91.845, 24.191], [91.874, 24.174], [91.884, 24.139], [91.902, 24.137], [91.941, 24.268], [91.92, 24.337], [91.957, 24.357], [91.996, 24.322], [91.97, 24.385], [91.985, 24.377], [91.997, 24.394], [92.09, 24.372], [92.122, 24.382], [92.137, 24.425], [92.165, 24.419], [92.155, 24.523], [92.169, 24.532], [92.213, 24.504], [92.224, 24.517], [92.254, 24.678], [92.296, 24.736], [92.279, 24.745], [92.289, 24.784], [92.273, 24.827], [92.241, 24.842], [92.248, 24.885], [92.233, 24.9], [92.299, 24.916], [92.4, 24.849], [92.437, 24.856], [92.445, 24.872], [92.488, 24.871], [92.487, 24.947], [92.45, 24.939], [92.468, 24.964], [92.42, 24.966], [92.425, 25.03], [92.341, 25.049], [92.349, 25.073], [92.335, 25.078], [92.311, 25.069], [92.228, 25.094], [92.196, 25.108], [92.219, 25.117], [92.189, 25.136], [92.184, 25.118], [92.16, 25.127], [92.166, 25.136], [92.136, 25.139], [92.133, 25.16], [92.074, 25.185], [92.004, 25.186], [91.972, 25.168], [91.916, 25.181], [91.775, 25.163], [91.756, 25.177], [91.748, 25.14], [91.704, 25.16], [91.692, 25.137], [91.638, 25.123], [91.622, 25.143], [91.602, 25.143], [91.61, 25.177], [91.577, 25.172], [91.557, 25.15], [91.471, 25.134], [91.469, 25.152], [91.287, 25.185], [91.268, 25.207], [91.252, 25.195], [91.07, 25.198], [90.862, 25.158], [90.806, 25.166], [90.78, 25.186], [90.733, 25.155], [90.71, 25.168], [90.698, 25.157], [90.676, 25.176], [90.666, 25.166], [90.663, 25.198], [90.641, 25.175], [90.509, 25.175], [90.441, 25.145], [90.37, 25.163], [90.33, 25.194], [90.118, 25.223], [90.055, 25.261], [89.981, 25.281], [89.967, 25.304], [89.949, 25.293], [89.907, 25.308], [89.877, 25.285], [89.832, 25.296], [89.841, 25.315], [89.82, 25.381], [89.849, 25.493], [89.87, 25.511], [89.851, 25.539], [89.866, 25.546], [89.883, 25.617], [89.851, 25.713], [89.828, 25.73], [89.84, 25.767], [89.817, 25.814], [89.835, 25.841], [89.833, 25.871], [89.887, 25.945], [89.825, 25.946], [89.849, 25.949], [89.839, 25.968], [89.871, 25.981], [89.836, 26.013], [89.836, 25.982], [89.82, 25.988], [89.809, 26.043], [89.791, 26.018], [89.802, 26.04], [89.774, 26.038], [89.799, 26.06], [89.795, 26.088], [89.781, 26.083], [89.783, 26.106], [89.756, 26.109], [89.767, 26.13], [89.748, 26.157], [89.681, 26.164], [89.702, 26.174], [89.673, 26.201], [89.692, 26.212], [89.679, 26.238], [89.672, 26.22], [89.634, 26.229], [89.65, 26.19], [89.63, 26.196], [89.628, 26.184], [89.655, 26.181], [89.649, 26.164], [89.609, 26.181], [89.62, 26.168], [89.61, 26.154], [89.591, 26.157], [89.604, 26.117], [89.625, 26.129], [89.63, 26.118], [89.594, 26.102], [89.609, 26.088], [89.63, 26.107], [89.65, 26.063], [89.621, 26.053], [89.605, 26.064], [89.613, 26.053], [89.579, 26.026], [89.578, 25.969], [89.566, 25.98], [89.558, 25.965], [89.54, 25.97], [89.541, 26.006], [89.48, 25.996], [89.431, 26.011], [89.424, 26.047], [89.391, 26.023], [89.393, 26.007], [89.355, 26.008], [89.3, 26.05], [89.276, 26.049], [89.281, 26.066], [89.254, 26.064], [89.267, 26.093], [89.252, 26.091], [89.229, 26.124], [89.155, 26.139], [89.157, 26.163], [89.135, 26.181], [89.149, 26.209], [89.141, 26.236], [89.1, 26.279], [89.105, 26.316], [89.122, 26.287], [89.136, 26.32], [89.084, 26.322], [89.101, 26.337], [89.098, 26.359], [89.08, 26.363], [89.096, 26.391], [89.087, 26.398], [89.036, 26.395], [89.006, 26.421], [88.994, 26.413], [88.983, 26.447], [88.956, 26.46], [88.965, 26.451], [88.946, 26.448], [88.945, 26.426], [88.926, 26.432], [88.927, 26.407], [88.905, 26.408], [88.917, 26.403], [88.919, 26.36], [88.958, 26.362], [88.952, 26.332], [88.961, 26.352], [88.987, 26.348], [88.986, 26.333], [89.001, 26.33], [88.983, 26.309], [88.996, 26.29], [89.007, 26.304], [89.018, 26.29], [89.022, 26.309], [89.02, 26.289], [89.045, 26.275], [89.046, 26.295], [89.059, 26.293], [89.051, 26.242], [88.957, 26.24], [88.926, 26.284], [88.898, 26.289], [88.861, 26.273], [88.878, 26.233], [88.842, 26.231], [88.813, 26.256], [88.819, 26.294], [88.794, 26.31], [88.666, 26.263], [88.675, 26.32], [88.747, 26.322], [88.734, 26.329], [88.745, 26.348], [88.703, 26.334], [88.681, 26.379], [88.702, 26.388], [88.624, 26.435], [88.623, 26.471], [88.595, 26.471], [88.593, 26.45], [88.561, 26.456], [88.557, 26.485], [88.526, 26.481], [88.521, 26.511], [88.49, 26.51], [88.485, 26.541], [88.437, 26.544], [88.416, 26.632], [88.398, 26.626], [88.332, 26.482], [88.355, 26.447], [88.371, 26.488], [88.405, 26.486], [88.42, 26.466], [88.485, 26.46], [88.523, 26.361], [88.482, 26.35], [88.458, 26.377], [88.436, 26.336], [88.404, 26.33], [88.415, 26.315], [88.385, 26.313], [88.35, 26.282], [88.351, 26.22], [88.269, 26.186], [88.242, 26.189], [88.177, 26.148], [88.158, 26.08], [88.183, 26.073], [88.17, 26.045], [88.183, 26.027], [88.14, 26.013], [88.115, 25.963], [88.122, 25.948], [88.086, 25.916], [88.103, 25.889], [88.094, 25.873], [88.111, 25.868], [88.101, 25.829], [88.12, 25.812], [88.114, 25.798], [88.144, 25.794], [88.151, 25.776], [88.184, 25.802], [88.21, 25.787], [88.236, 25.809], [88.27, 25.808], [88.267, 25.782], [88.321, 25.737], [88.374, 25.717], [88.371, 25.697], [88.405, 25.684], [88.402, 25.673], [88.454, 25.665], [88.444, 25.597], [88.5, 25.584], [88.494, 25.559], [88.523, 25.535], [88.533, 25.542], [88.54, 25.508], [88.552, 25.521], [88.596, 25.506], [88.609, 25.516], [88.622, 25.497], [88.648, 25.496], [88.647, 25.478], [88.699, 25.471], [88.708, 25.5], [88.742, 25.505], [88.745, 25.488], [88.769, 25.499], [88.759, 25.525], [88.811, 25.523], [88.814, 25.488], [88.83, 25.49], [88.839, 25.458], [88.83, 25.417], [88.812, 25.411], [88.841, 25.398], [88.84, 25.364], [88.885, 25.326], [88.906, 25.338], [88.929, 25.304], [89.009, 25.303], [89.008, 25.265], [88.987, 25.274], [88.956, 25.255], [88.962, 25.209], [88.936, 25.211], [88.949, 25.177], [88.933, 25.181], [88.923, 25.165], [88.911, 25.18], [88.875, 25.179], [88.875, 25.196], [88.864, 25.19], [88.844, 25.214], [88.806, 25.17], [88.769, 25.19], [88.749, 25.177], [88.711, 25.208], [88.613, 25.204], [88.566, 25.175], [88.558, 25.193], [88.534, 25.188], [88.538, 25.198], [88.499, 25.21], [88.444, 25.197], [88.461, 25.149], [88.441, 25.128], [88.453, 25.079], [88.435, 25.056], [88.453, 25.037], [88.437, 25.006], [88.426, 25.016], [88.412, 24.999], [88.417, 24.975], [88.395, 24.969], [88.399, 24.945], [88.364, 24.953], [88.341, 24.941], [88.324, 24.917], [88.347, 24.892], [88.331, 24.87], [88.321, 24.883], [88.302, 24.872], [88.276, 24.898], [88.258, 24.878], [88.261, 24.919], [88.226, 24.96], [88.138, 24.936], [88.175, 24.86], [88.132, 24.836], [88.136, 24.805], [88.124, 24.823], [88.106, 24.78], [88.068, 24.769], [88.063, 24.722], [88.009, 24.668], [88.141, 24.511], [88.198, 24.462], [88.272, 24.441], [88.334, 24.381], [88.446, 24.379], [88.527, 24.344], [88.555, 24.293], [88.568, 24.327], [88.628, 24.305], [88.697, 24.315], [88.735, 24.276], [88.731, 24.173], [88.746, 24.147], [88.693, 24.111], [88.742, 24.057], [88.725, 24.042], [88.757, 24.032], [88.729, 23.996], [88.76, 24.006], [88.769, 23.982], [88.738, 23.983], [88.733, 23.911], [88.706, 23.916], [88.704, 23.899], [88.664, 23.882], [88.668, 23.869], [88.626, 23.865], [88.616, 23.877], [88.608, 23.862], [88.576, 23.862], [88.602, 23.817], [88.585, 23.814], [88.596, 23.805], [88.578, 23.787], [88.556, 23.784], [88.581, 23.761], [88.565, 23.711], [88.574, 23.667], [88.558, 23.649], [88.562, 23.637], [88.594, 23.641], [88.58, 23.603], [88.646, 23.609], [88.654, 23.556], [88.696, 23.517], [88.725, 23.512], [88.741, 23.48], [88.761, 23.478], [88.761, 23.49], [88.775, 23.48], [88.768, 23.49], [88.786, 23.507], [88.801, 23.497], [88.787, 23.469], [88.795, 23.443], [88.764, 23.448], [88.749, 23.401], [88.765, 23.368], [88.732, 23.352], [88.745, 23.308], [88.73, 23.32], [88.725, 23.298], [88.711, 23.313], [88.696, 23.302], [88.724, 23.272], [88.719, 23.255], [88.77, 23.245], [88.79, 23.218], [88.811, 23.222], [88.811, 23.256], [88.824, 23.233], [88.907, 23.236], [88.915, 23.213], [88.943, 23.206], [88.979, 23.214], [88.976, 23.224], [88.996, 23.215], [88.98, 23.213], [88.98, 23.183], [88.962, 23.193], [88.939, 23.177], [88.918, 23.129], [88.868, 23.101], [88.861, 23.077], [88.884, 23.04], [88.88, 23.006], [88.845, 23.01], [88.871, 22.979], [88.857, 22.969], [88.859, 22.943], [88.894, 22.952], [88.887, 22.933], [88.908, 22.92], [88.896, 22.913], [88.909, 22.88], [88.945, 22.881], [88.969, 22.844], [88.958, 22.796], [88.938, 22.793], [88.911, 22.758], [88.928, 22.718], [88.962, 22.695], [88.927, 22.65], [88.935, 22.621], [88.96, 22.617], [88.939, 22.592], [88.941, 22.561], [88.962, 22.549], [88.996, 22.469], [89.0, 22.43], [88.972, 22.41], [88.994, 22.389], [88.984, 22.327], [89.025, 22.297], [88.995, 22.286], [89.02, 22.269], [89.014, 22.254], [89.034, 22.258], [89.039, 22.231], [89.072, 22.197], [89.072, 22.146], [89.099, 22.153], [89.038, 22.094], [89.077, 22.008], [89.069, 21.933], [89.035, 21.927], [88.997, 21.95], [89.014, 21.977], [89.01, 21.98], [88.989, 21.951], [89.017, 21.926], [89.012, 21.903], [88.929, 21.945], [88.944, 22.001], [88.988, 21.971], [89.009, 21.98], [89.004, 21.984], [88.988, 21.974], [88.954, 22.012], [88.936, 22.012], [88.918, 21.981], [88.915, 22.008], [88.902, 22.004], [88.897, 21.926], [88.912, 21.931], [89.025, 21.871], [89.012, 21.794], [89.019, 21.766], [89.056, 21.733], [89.094, 21.641], [89.05, 21.616], [89.024, 21.658], [89.036, 21.615], [88.998, 21.603], [88.997, 21.622], [88.968, 21.62], [88.939, 21.646], [88.951, 21.694], [88.921, 21.722], [88.932, 21.744], [88.921, 21.762], [88.915, 21.716], [88.94, 21.689], [88.923, 21.632], [88.884, 21.661], [88.87, 21.704], [88.877, 21.767], [88.835, 21.783], [88.853, 21.889], [88.819, 21.929], [88.86, 21.913], [88.894, 21.925], [88.806, 21.938], [88.799, 21.922], [88.84, 21.886], [88.82, 21.838], [88.831, 21.808], [88.821, 21.781], [88.865, 21.761], [88.841, 21.717], [88.862, 21.641], [88.846, 21.619], [88.804, 21.637], [88.822, 21.667], [88.815, 21.711], [88.771, 21.703], [88.81, 21.704], [88.808, 21.663], [88.745, 21.661], [88.711, 21.69], [88.694, 21.745], [88.711, 21.787], [88.696, 21.843], [88.725, 21.98], [88.751, 22.006], [88.71, 21.996], [88.69, 21.972], [88.696, 21.951], [88.679, 21.943], [88.631, 21.954], [88.635, 22.011], [88.607, 21.996], [88.611, 21.929], [88.587, 21.951], [88.61, 21.922], [88.583, 21.891], [88.55, 21.922], [88.543, 21.969], [88.581, 21.956], [88.576, 21.961], [88.577, 21.968], [88.574, 21.962], [88.554, 21.976], [88.535, 21.969], [88.549, 21.92], [88.569, 21.904], [88.541, 21.907], [88.539, 21.863], [88.519, 21.876], [88.537, 21.857], [88.55, 21.879], [88.541, 21.901], [88.569, 21.9], [88.576, 21.883], [88.561, 21.877], [88.573, 21.88], [88.557, 21.828], [88.554, 21.874], [88.552, 21.874], [88.551, 21.817], [88.531, 21.846], [88.537, 21.857], [88.45, 21.906], [88.418, 21.903], [88.451, 21.905], [88.483, 21.872], [88.488, 21.84], [88.447, 21.813], [88.457, 21.798], [88.471, 21.792], [88.453, 21.718], [88.472, 21.674], [88.45, 21.612], [88.434, 21.604], [88.441, 21.623], [88.419, 21.683], [88.432, 21.704], [88.384, 21.778], [88.375, 21.768], [88.343, 21.761], [88.343, 21.748], [88.344, 21.756], [88.39, 21.759], [88.363, 21.726], [88.394, 21.712], [88.357, 21.686], [88.338, 21.712], [88.34, 21.722], [88.327, 21.726], [88.321, 21.709], [88.306, 21.718], [88.3, 21.781], [88.283, 21.789], [88.261, 21.732], [88.301, 21.682], [88.284, 21.601], [88.31, 21.581], [88.284, 21.559], [88.254, 21.558], [88.218, 21.616], [88.237, 21.644], [88.233, 21.669], [88.2, 21.683], [88.22, 21.702], [88.215, 21.778], [88.2, 21.836], [88.163, 21.884], [88.171, 21.929], [88.15, 21.957], [88.215, 22.039], [88.224, 22.09], [88.205, 22.165], [88.169, 22.197], [88.07, 22.211], [88.085, 22.256], [88.061, 22.206], [87.986, 22.238], [87.956, 22.27], [87.947, 22.256], [87.983, 22.214], [87.975, 22.233], [88.01, 22.201], [88.035, 22.209], [88.074, 22.187], [88.136, 22.185], [88.191, 22.114], [88.154, 22.064], [88.05, 22.014], [88.004, 21.906], [87.941, 21.823], [87.883, 21.793], [87.808, 21.705], [87.747, 21.7], [87.713, 21.665], [87.554, 21.638], [87.408, 21.589], [87.362, 21.558], [87.25, 21.557], [87.119, 21.517], [86.979, 21.41], [86.892, 21.318], [86.829, 21.209], [86.856, 21.206], [86.842, 21.175], [86.848, 21.096], [86.981, 20.857], [86.967, 20.791], [86.944, 20.766], [86.992, 20.77], [87.0, 20.698], [87.058, 20.717], [86.775, 20.521], [86.734, 20.464], [86.724, 20.394], [86.739, 20.401], [86.746, 20.379], [86.776, 20.405], [86.781, 20.379], [86.797, 20.376], [86.779, 20.357], [86.798, 20.363], [86.748, 20.307], [86.68, 20.264], [86.669, 20.276], [86.68, 20.26], [86.596, 20.224], [86.52, 20.17], [86.434, 20.052], [86.414, 19.997], [86.378, 19.967], [86.408, 19.97], [86.194, 19.889], [85.862, 19.805], [85.637, 19.725], [85.323, 19.57], [85.141, 19.443], [85.079, 19.374], [84.933, 19.279], [84.815, 19.162], [84.684, 18.967], [84.587, 18.867], [84.552, 18.791], [84.47, 18.714], [84.44, 18.659], [84.367, 18.591], [84.355, 18.555], [84.147, 18.373], [84.127, 18.313], [83.86, 18.174], [83.81, 18.156], [83.795, 18.168], [83.805, 18.154], [83.605, 18.037], [83.569, 18.012], [83.532, 17.951], [83.459, 17.901], [83.407, 17.841], [83.411, 17.809], [83.355, 17.756], [83.346, 17.726], [83.297, 17.693], [83.295, 17.675], [83.216, 17.595], [83.033, 17.514], [82.975, 17.466], [82.726, 17.355], [82.562, 17.262], [82.319, 17.058], [82.288, 17.016], [82.265, 16.939], [82.278, 16.951], [82.241, 16.908], [82.248, 16.876], [82.26, 16.884], [82.314, 16.846], [82.361, 16.854], [82.333, 16.717], [82.345, 16.705], [82.328, 16.685], [82.354, 16.706], [82.346, 16.716], [82.365, 16.707], [82.317, 16.662], [82.329, 16.614], [82.319, 16.577], [82.313, 16.668], [82.312, 16.627], [82.308, 16.64], [82.284, 16.626], [82.299, 16.586], [82.263, 16.563], [82.297, 16.567], [82.299, 16.572], [82.314, 16.559], [82.29, 16.555], [82.29, 16.555], [82.29, 16.555], [82.235, 16.546], [81.958, 16.392], [81.878, 16.383], [81.721, 16.307], [81.691, 16.327], [81.487, 16.355], [81.394, 16.342], [81.305, 16.304], [81.246, 16.259], [81.214, 16.207], [81.191, 16.103], [81.146, 16.013], [81.148, 15.974], [81.005, 15.838], [81.021, 15.793], [81.011, 15.802], [81.014, 15.771], [80.998, 15.77], [81.008, 15.753], [80.937, 15.714], [80.822, 15.709], [80.788, 15.757], [80.8, 15.777], [80.78, 15.835], [80.801, 15.806], [80.816, 15.811], [80.807, 15.84], [80.774, 15.866], [80.681, 15.885], [80.536, 15.852], [80.429, 15.805], [80.289, 15.693], [80.237, 15.601], [80.221, 15.601], [80.235, 15.599], [80.222, 15.583], [80.235, 15.591], [80.225, 15.533], [80.194, 15.505], [80.211, 15.494], [80.205, 15.474], [80.122, 15.368], [80.085, 15.283], [80.089, 15.212], [80.047, 15.079], [80.098, 14.78], [80.142, 14.704], [80.171, 14.612], [80.196, 14.586], [80.169, 14.355], [80.13, 14.231], [80.134, 14.097], [80.251, 13.796], [80.235, 13.647], [80.326, 13.442], [80.345, 13.28], [80.298, 13.137], [80.295, 13.093], [80.311, 13.108], [80.287, 13.064], [80.259, 12.935], [80.255, 12.783], [80.157, 12.468], [79.879, 12.054], [79.805, 11.834], [79.761, 11.624], [79.768, 11.512], [79.843, 11.351], [79.835, 11.315], [79.858, 11.129], [79.853, 10.679], [79.841, 10.676], [79.853, 10.676], [79.88, 10.305], [79.86, 10.282], [79.817, 10.276], [79.813, 10.289], [79.814, 10.276], [79.78, 10.272], [79.783, 10.296], [79.749, 10.314], [79.778, 10.285], [79.768, 10.272], [79.531, 10.309], [79.544, 10.325], [79.513, 10.313], [79.396, 10.319], [79.298, 10.263], [79.268, 10.233], [79.277, 10.213], [79.242, 10.185], [79.229, 10.107], [79.219, 10.113], [79.227, 10.074], [79.248, 10.071], [79.239, 10.058], [79.266, 10.039], [79.139, 9.921], [79.147, 9.911], [79.126, 9.904], [79.124, 9.884], [79.111, 9.893], [79.12, 9.854], [79.085, 9.835], [79.094, 9.829], [79.059, 9.772], [79.03, 9.761], [79.016, 9.732], [79.013, 9.745], [78.925, 9.585], [78.9, 9.468], [78.936, 9.408], [79.013, 9.332], [79.071, 9.295], [79.184, 9.283], [79.266, 9.293], [79.318, 9.326], [79.335, 9.312], [79.315, 9.283], [79.324, 9.264], [79.435, 9.158], [79.31, 9.242], [79.22, 9.257], [79.209, 9.282], [79.081, 9.261], [78.979, 9.275], [78.861, 9.255], [78.733, 9.212], [78.717, 9.19], [78.664, 9.194], [78.642, 9.175], [78.657, 9.158], [78.578, 9.131], [78.531, 9.138], [78.409, 9.111], [78.215, 8.966], [78.187, 8.924], [78.158, 8.797], [78.187, 8.764], [78.199, 8.787], [78.198, 8.761], [78.163, 8.741], [78.126, 8.665], [78.138, 8.586], [78.122, 8.516], [78.131, 8.497], [78.064, 8.418], [78.057, 8.379], [78.067, 8.373], [77.803, 8.24], [77.781, 8.201], [77.746, 8.177], [77.579, 8.138], [77.559, 8.119], [77.564, 8.092], [77.551, 8.078], [77.316, 8.122], [76.979, 8.382], [76.631, 8.837], [76.547, 8.904], [76.499, 9.058], [76.33, 9.441], [76.241, 9.968], [76.1, 10.381], [75.91, 10.786], [75.847, 11.063], [75.731, 11.357], [75.682, 11.45], [75.617, 11.476], [75.561, 11.643], [75.509, 11.731], [75.453, 11.771], [75.386, 11.856], [75.356, 11.86], [75.25, 12.008], [75.229, 12.023], [75.201, 12.006], [75.058, 12.352], [74.974, 12.5], [74.824, 12.849], [74.716, 13.313], [74.694, 13.344], [74.695, 13.455], [74.669, 13.64], [74.646, 13.682], [74.61, 13.866], [74.569, 13.947], [74.514, 13.987], [74.469, 14.189], [74.442, 14.225], [74.398, 14.408], [74.355, 14.522], [74.31, 14.521], [74.315, 14.546], [74.27, 14.627], [74.286, 14.634], [74.284, 14.664], [74.257, 14.708], [74.263, 14.72], [74.234, 14.748], [74.204, 14.736], [74.204, 14.719], [74.177, 14.751], [74.152, 14.747], [74.141, 14.779], [74.119, 14.774], [74.093, 14.804], [74.124, 14.805], [74.125, 14.84], [74.085, 14.899], [74.044, 14.917], [74.041, 14.995], [74.021, 15.017], [73.989, 15.019], [73.988, 15.055], [73.975, 15.049], [73.955, 15.072], [73.913, 15.084], [73.928, 15.095], [73.918, 15.106], [73.941, 15.117], [73.937, 15.132], [73.957, 15.135], [73.879, 15.362], [73.842, 15.358], [73.784, 15.408], [73.79, 15.464], [73.767, 15.493], [73.732, 15.589], [73.732, 15.607], [73.745, 15.606], [73.723, 15.627], [73.689, 15.718], [73.726, 15.717], [73.739, 15.734], [73.683, 15.72], [73.65, 15.745], [73.664, 15.753], [73.656, 15.796], [73.626, 15.852], [73.587, 15.911], [73.51, 15.94], [73.484, 16.034], [73.456, 16.053], [73.465, 16.087], [73.44, 16.191], [73.387, 16.358], [73.369, 16.363], [73.359, 16.442], [73.311, 16.541], [73.345, 16.573], [73.317, 16.602], [73.355, 16.619], [73.33, 16.62], [73.339, 16.638], [73.323, 16.639], [73.33, 16.687], [73.305, 16.73], [73.304, 16.766], [73.319, 16.795], [73.289, 16.844], [73.287, 16.881], [73.303, 16.891], [73.279, 16.893], [73.3, 16.982], [73.271, 16.985], [73.284, 17.011], [73.255, 17.028], [73.258, 17.049], [73.277, 17.036], [73.287, 17.054], [73.282, 17.107], [73.268, 17.115], [73.253, 17.189], [73.232, 17.199], [73.247, 17.205], [73.243, 17.225], [73.191, 17.299], [73.223, 17.306], [73.229, 17.282], [73.259, 17.286], [73.236, 17.288], [73.239, 17.317], [73.219, 17.329], [73.229, 17.335], [73.206, 17.387], [73.183, 17.384], [73.167, 17.404], [73.199, 17.439], [73.185, 17.443], [73.192, 17.47], [73.174, 17.517], [73.137, 17.556], [73.153, 17.599], [73.114, 17.69], [73.133, 17.724], [73.089, 17.812], [73.075, 17.883], [73.031, 17.943], [73.04, 17.978], [73.005, 18.02], [73.021, 18.027], [72.99, 18.056], [72.997, 18.084], [72.971, 18.133], [72.989, 18.158], [72.981, 18.196], [72.956, 18.22], [72.932, 18.22], [72.938, 18.284], [72.973, 18.266], [72.986, 18.282], [72.954, 18.335], [72.915, 18.355], [72.926, 18.383], [72.907, 18.403], [72.894, 18.472], [72.911, 18.503], [72.905, 18.539], [72.921, 18.551], [72.878, 18.631], [72.86, 18.634], [72.851, 18.699], [72.866, 18.808], [72.914, 18.8], [72.945, 18.826], [72.957, 18.799], [72.996, 18.773], [72.978, 18.808], [72.999, 18.809], [72.975, 18.84], [72.995, 18.872], [72.961, 18.841], [72.918, 18.855], [72.904, 18.904], [72.937, 18.909], [72.941, 18.944], [72.959, 18.957], [72.947, 18.987], [72.885, 18.981], [72.878, 19.022], [72.854, 18.997], [72.843, 18.93], [72.809, 18.894], [72.823, 18.944], [72.809, 18.955], [72.793, 18.941], [72.817, 19.026], [72.833, 19.024], [72.839, 19.044], [72.817, 19.041], [72.829, 19.117], [72.807, 19.151], [72.786, 19.134], [72.795, 19.195], [72.781, 19.195], [72.779, 19.279], [72.787, 19.308], [72.83, 19.335], [72.8, 19.324], [72.745, 19.378], [72.76, 19.393], [72.75, 19.489], [72.72, 19.501], [72.711, 19.541], [72.709, 19.599], [72.725, 19.61], [72.699, 19.661], [72.708, 19.704], [72.697, 19.719], [72.676, 19.716], [72.683, 19.793], [72.671, 19.814], [72.668, 19.801], [72.654, 19.811], [72.642, 19.844], [72.648, 19.87], [72.68, 19.865], [72.679, 19.921], [72.664, 19.933], [72.722, 19.971], [72.708, 20.07], [72.747, 20.116], [72.742, 20.241], [72.757, 20.29], [72.789, 20.347], [72.823, 20.366], [72.805, 20.372], [72.82, 20.434], [72.846, 20.478], [72.858, 20.466], [72.886, 20.498], [72.898, 20.586], [72.853, 20.757], [72.82, 20.794], [72.839, 20.805], [72.78, 20.921], [72.82, 20.928], [72.82, 20.952], [72.755, 20.939], [72.722, 21.038], [72.726, 21.061], [72.749, 21.057], [72.741, 21.074], [72.71, 21.08], [72.702, 21.096], [72.685, 21.083], [72.67, 21.115], [72.642, 21.085], [72.62, 21.101], [72.638, 21.211], [72.657, 21.225], [72.622, 21.243], [72.6, 21.29], [72.601, 21.389], [72.687, 21.452], [72.613, 21.4], [72.579, 21.41], [72.703, 21.526], [72.75, 21.528], [72.77, 21.563], [72.754, 21.566], [72.802, 21.587], [72.83, 21.628], [72.828, 21.651], [72.868, 21.642], [72.877, 21.673], [72.963, 21.674], [72.862, 21.688], [72.801, 21.658], [72.738, 21.691], [72.713, 21.68], [72.608, 21.688], [72.544, 21.661], [72.532, 21.718], [72.607, 21.753], [72.61, 21.79], [72.593, 21.805], [72.62, 21.83], [72.61, 21.84], [72.623, 21.884], [72.648, 21.897], [72.691, 21.883], [72.692, 21.942], [72.719, 21.939], [72.748, 21.967], [72.725, 21.996], [72.708, 21.953], [72.64, 21.957], [72.545, 21.911], [72.528, 21.937], [72.548, 21.964], [72.539, 21.963], [72.528, 21.982], [72.549, 21.991], [72.543, 22.126], [72.581, 22.199], [72.65, 22.215], [72.66, 22.199], [72.783, 22.158], [72.783, 22.193], [72.854, 22.239], [72.849, 22.275], [72.699, 22.2], [72.624, 22.234], [72.544, 22.223], [72.3, 22.033], [72.269, 21.971], [72.212, 21.962], [72.204, 21.891], [72.242, 21.83], [72.235, 21.812], [72.203, 21.819], [72.283, 21.697], [72.306, 21.626], [72.27, 21.573], [72.235, 21.456], [72.108, 21.302], [72.083, 21.245], [72.112, 21.199], [72.018, 21.154], [72.01, 21.135], [71.997, 21.142], [71.974, 21.122], [71.898, 21.11], [71.879, 21.089], [71.813, 21.067], [71.798, 21.055], [71.806, 21.038], [71.717, 21.021], [71.682, 20.997], [71.647, 20.994], [71.637, 20.981], [71.648, 20.975], [71.617, 20.967], [71.607, 20.978], [71.611, 20.966], [71.566, 20.949], [71.517, 20.948], [71.507, 20.919], [71.44, 20.87], [71.38, 20.874], [71.384, 20.857], [71.209, 20.801], [71.156, 20.778], [71.148, 20.758], [71.087, 20.756], [71.079, 20.737], [71.051, 20.73], [71.005, 20.739], [70.977, 20.703], [70.878, 20.71], [70.822, 20.691], [70.438, 20.853], [70.181, 21.036], [70.048, 21.157], [69.616, 21.625], [69.566, 21.652], [69.217, 21.958], [68.981, 22.212], [68.974, 22.237], [68.958, 22.238], [68.936, 22.312], [68.977, 22.404], [68.981, 22.404], [68.984, 22.413], [69.068, 22.481], [69.084, 22.475], [69.05, 22.438], [69.039, 22.446], [69.035, 22.39], [69.082, 22.388], [69.11, 22.41], [69.128, 22.395], [69.121, 22.376], [69.176, 22.423], [69.195, 22.422], [69.188, 22.403], [69.201, 22.401], [69.168, 22.373], [69.181, 22.371], [69.163, 22.349], [69.154, 22.249], [69.134, 22.223], [69.136, 22.196], [69.148, 22.195], [69.179, 22.213], [69.19, 22.244], [69.213, 22.21], [69.238, 22.223], [69.234, 22.25], [69.253, 22.266], [69.28, 22.27], [69.284, 22.255], [69.293, 22.287], [69.336, 22.305], [69.333, 22.328], [69.423, 22.316], [69.49, 22.337], [69.499, 22.366], [69.54, 22.377], [69.561, 22.356], [69.58, 22.367], [69.598, 22.346], [69.617, 22.345], [69.621, 22.372], [69.655, 22.36], [69.661, 22.396], [69.702, 22.399], [69.696, 22.453], [69.731, 22.485], [69.744, 22.459], [69.733, 22.443], [69.746, 22.428], [69.759, 22.443], [69.79, 22.414], [69.797, 22.378], [69.833, 22.447], [69.871, 22.423], [69.888, 22.455], [69.937, 22.463], [69.94, 22.483], [69.979, 22.468], [69.988, 22.51], [70.01, 22.5], [70.073, 22.518], [70.091, 22.508], [70.086, 22.494], [70.116, 22.501], [70.12, 22.486], [70.124, 22.513], [70.185, 22.522], [70.179, 22.568], [70.264, 22.653], [70.279, 22.725], [70.413, 22.818], [70.462, 22.831], [70.491, 22.89], [70.535, 22.912], [70.54, 22.925], [70.48, 22.937], [70.433, 22.967], [70.479, 22.975], [70.542, 22.96], [70.562, 23.029], [70.602, 23.034], [70.597, 23.061], [70.629, 23.062], [70.694, 23.12], [70.765, 23.145], [70.768, 23.167], [70.792, 23.165], [70.787, 23.151], [70.816, 23.165], [70.815, 23.137], [70.834, 23.128], [70.829, 23.08], [70.836, 23.112], [70.858, 23.13], [70.828, 23.157], [70.847, 23.152], [70.849, 23.169], [70.902, 23.171], [70.959, 23.195], [70.919, 23.198], [70.891, 23.183], [70.863, 23.192], [70.873, 23.204], [70.86, 23.208], [70.893, 23.225], [70.833, 23.25], [70.812, 23.23], [70.768, 23.246], [70.724, 23.218], [70.728, 23.206], [70.651, 23.224], [70.649, 23.192], [70.579, 23.178], [70.501, 23.178], [70.428, 23.218], [70.436, 23.233], [70.425, 23.237], [70.366, 23.22], [70.302, 23.224], [70.268, 23.178], [70.209, 23.16], [70.207, 23.126], [70.149, 23.037], [70.189, 23.073], [70.211, 23.075], [70.226, 22.952], [70.164, 22.938], [70.121, 22.963], [70.158, 23.032], [70.148, 23.035], [70.118, 22.991], [70.037, 22.953], [70.017, 22.92], [69.962, 22.894], [69.927, 22.896], [69.899, 22.871], [69.801, 22.851], [69.713, 22.806], [69.651, 22.796], [69.646, 22.81], [69.606, 22.803], [69.576, 22.818], [69.477, 22.796], [69.457, 22.814], [69.417, 22.811], [69.47, 22.776], [69.495, 22.78], [69.472, 22.774], [69.381, 22.819], [69.196, 22.838], [69.194, 22.852], [69.131, 22.872], [68.813, 23.058], [68.87, 23.027], [68.837, 23.046], [68.842, 23.059], [68.821, 23.057], [68.815, 23.077], [68.812, 23.059], [68.759, 23.08], [68.75, 23.088], [68.778, 23.078], [68.76, 23.1], [68.784, 23.12], [68.754, 23.123], [68.746, 23.11], [68.712, 23.151], [68.683, 23.153], [68.683, 23.176], [68.66, 23.198], [68.674, 23.202], [68.669, 23.218], [68.621, 23.206], [68.654, 23.231], [68.702, 23.24], [68.714, 23.263], [68.706, 23.271], [68.712, 23.287], [68.699, 23.284], [68.714, 23.318], [68.681, 23.312], [68.685, 23.329], [68.661, 23.347], [68.652, 23.303], [68.64, 23.323], [68.653, 23.336], [68.636, 23.339], [68.62, 23.374], [68.543, 23.42], [68.531, 23.445], [68.546, 23.465], [68.529, 23.45], [68.484, 23.549], [68.493, 23.606], [68.516, 23.621], [68.511, 23.639], [68.529, 23.636], [68.533, 23.649], [68.521, 23.65], [68.543, 23.653], [68.568, 23.685], [68.548, 23.692], [68.557, 23.717], [68.573, 23.721], [68.587, 23.703], [68.597, 23.724], [68.616, 23.726]], [[80.8, 15.777], [80.791, 15.754], [80.822, 15.71], [80.8, 15.777]], [[88.426, 21.809], [88.417, 21.813], [88.384, 21.778], [88.426, 21.809]], [[88.592, 21.99], [88.571, 22.0], [88.584, 21.99], [88.582, 21.984], [88.592, 21.99]], [[88.764, 21.703], [88.794, 21.737], [88.79, 21.75], [88.79, 21.738], [88.756, 21.735], [88.767, 21.763], [88.75, 21.77], [88.781, 21.825], [88.746, 21.773], [88.76, 21.762], [88.752, 21.733], [88.778, 21.721], [88.757, 21.703], [88.764, 21.703]]], [[[82.361, 16.857], [82.358, 16.947], [82.365, 16.876], [82.361, 16.857]]], [[[82.357, 16.95], [82.326, 16.988], [82.356, 16.968], [82.357, 16.95]]], [[[94.267, 13.463], [94.245, 13.433], [94.248, 13.46], [94.267, 13.463]]], [[[93.698, 7.011], [93.655, 7.005], [93.667, 7.023], [93.644, 7.101], [93.667, 7.113], [93.648, 7.111], [93.643, 7.127], [93.665, 7.142], [93.661, 7.177], [93.676, 7.193], [93.722, 7.189], [93.749, 7.216], [93.792, 7.208], [93.796, 7.235], [93.837, 7.245], [93.839, 7.216], [93.87, 7.205], [93.881, 7.09], [93.902, 7.081], [93.912, 7.025], [93.945, 7.001], [93.933, 6.989], [93.923, 7.01], [93.91, 6.999], [93.941, 6.954], [93.915, 6.947], [93.91, 6.911], [93.891, 6.901], [93.898, 6.813], [93.876, 6.793], [93.862, 6.814], [93.847, 6.811], [93.847, 6.835], [93.842, 6.778], [93.822, 6.753], [93.799, 6.766], [93.81, 6.812], [93.795, 6.81], [93.778, 6.832], [93.786, 6.847], [93.763, 6.863], [93.777, 6.88], [93.732, 6.922], [93.741, 6.956], [93.726, 6.959], [93.716, 6.99], [93.732, 6.977], [93.717, 6.995], [93.696, 6.992], [93.698, 7.011]], [[93.733, 6.976], [93.734, 6.975], [93.738, 7.0], [93.733, 6.976]]], [[[93.856, 12.3], [93.867, 12.275], [93.841, 12.271], [93.84, 12.295], [93.856, 12.3]]], [[[93.7, 7.447], [93.71, 7.405], [93.744, 7.361], [93.714, 7.311], [93.675, 7.292], [93.636, 7.243], [93.607, 7.311], [93.623, 7.323], [93.619, 7.374], [93.655, 7.385], [93.656, 7.366], [93.67, 7.391], [93.702, 7.394], [93.69, 7.404], [93.7, 7.447]]], [[[93.607, 8.572], [93.632, 8.468], [93.617, 8.468], [93.613, 8.423], [93.607, 8.572]]], [[[93.585, 8.038], [93.563, 8.067], [93.578, 8.074], [93.561, 8.093], [93.568, 8.12], [93.561, 8.108], [93.553, 8.12], [93.571, 8.127], [93.585, 8.038]]], [[[93.573, 7.994], [93.569, 7.928], [93.494, 7.994], [93.516, 8.001], [93.522, 8.026], [93.544, 7.991], [93.534, 8.026], [93.573, 7.994]]], [[[93.535, 8.229], [93.536, 8.201], [93.493, 8.146], [93.538, 8.09], [93.541, 8.036], [93.521, 8.051], [93.514, 8.033], [93.498, 8.036], [93.491, 7.998], [93.476, 8.046], [93.499, 8.038], [93.494, 8.058], [93.502, 8.069], [93.504, 8.05], [93.516, 8.053], [93.521, 8.08], [93.505, 8.086], [93.476, 8.053], [93.47, 8.089], [93.488, 8.095], [93.459, 8.102], [93.437, 8.17], [93.487, 8.199], [93.483, 8.223], [93.535, 8.229]]], [[[93.373, 8.022], [93.401, 8.009], [93.404, 7.962], [93.421, 7.969], [93.452, 7.939], [93.466, 7.891], [93.454, 7.872], [93.412, 7.907], [93.368, 7.878], [93.335, 7.9], [93.327, 7.923], [93.342, 7.947], [93.322, 7.923], [93.308, 7.934], [93.301, 7.961], [93.32, 8.007], [93.373, 8.022]]], [[[93.23, 8.263], [93.241, 8.229], [93.23, 8.222], [93.21, 8.251], [93.23, 8.263]]], [[[93.118, 8.356], [93.134, 8.346], [93.12, 8.273], [93.193, 8.219], [93.191, 8.196], [93.112, 8.224], [93.076, 8.273], [93.085, 8.341], [93.118, 8.356]]], [[[93.124, 12.15], [93.112, 12.129], [93.109, 12.145], [93.124, 12.15]]], [[[93.106, 12.262], [93.1, 12.2], [93.087, 12.215], [93.098, 12.239], [93.084, 12.217], [93.062, 12.233], [93.073, 12.262], [93.085, 12.238], [93.106, 12.262]]], [[[93.076, 12.077], [93.048, 12.114], [93.068, 12.121], [93.035, 12.132], [93.069, 12.212], [93.088, 12.195], [93.076, 12.18], [93.092, 12.182], [93.085, 12.119], [93.097, 12.139], [93.102, 12.129], [93.097, 12.093], [93.076, 12.077]]], [[[92.602, 11.884], [92.62, 11.931], [92.599, 11.904], [92.593, 11.918], [92.608, 11.93], [92.628, 12.043], [92.622, 12.101], [92.664, 12.222], [92.655, 12.18], [92.674, 12.218], [92.681, 12.192], [92.688, 12.235], [92.7, 12.233], [92.709, 12.148], [92.719, 12.18], [92.751, 12.181], [92.754, 12.17], [92.757, 12.182], [92.733, 12.185], [92.729, 12.198], [92.722, 12.188], [92.729, 12.243], [92.742, 12.205], [92.739, 12.236], [92.749, 12.233], [92.741, 12.245], [92.749, 12.274], [92.763, 12.262], [92.788, 12.28], [92.767, 12.297], [92.771, 12.313], [92.78, 12.313], [92.779, 12.313], [92.77, 12.334], [92.753, 12.296], [92.734, 12.302], [92.737, 12.313], [92.719, 12.3], [92.699, 12.328], [92.695, 12.4], [92.707, 12.594], [92.684, 12.609], [92.703, 12.605], [92.718, 12.644], [92.722, 12.615], [92.727, 12.636], [92.748, 12.62], [92.729, 12.636], [92.733, 12.657], [92.773, 12.67], [92.778, 12.641], [92.762, 12.624], [92.778, 12.638], [92.779, 12.58], [92.79, 12.725], [92.781, 12.74], [92.762, 12.723], [92.782, 12.734], [92.769, 12.673], [92.732, 12.673], [92.726, 12.694], [92.745, 12.699], [92.746, 12.723], [92.73, 12.744], [92.72, 12.79], [92.727, 12.795], [92.72, 12.797], [92.722, 12.825], [92.731, 12.836], [92.738, 12.804], [92.739, 12.837], [92.743, 12.821], [92.756, 12.847], [92.753, 12.819], [92.766, 12.819], [92.773, 12.843], [92.784, 12.762], [92.793, 12.774], [92.78, 12.805], [92.79, 12.815], [92.795, 12.794], [92.801, 12.813], [92.789, 12.829], [92.782, 12.809], [92.782, 12.86], [92.793, 12.845], [92.788, 12.861], [92.8, 12.848], [92.793, 12.864], [92.804, 12.861], [92.791, 12.89], [92.825, 12.891], [92.81, 12.909], [92.801, 12.9], [92.79, 12.961], [92.799, 12.992], [92.822, 12.977], [92.807, 12.999], [92.823, 13.007], [92.842, 12.991], [92.823, 13.007], [92.837, 13.023], [92.82, 13.012], [92.813, 13.022], [92.814, 13.007], [92.788, 13.02], [92.793, 13.092], [92.814, 13.072], [92.806, 13.101], [92.821, 13.091], [92.829, 13.109], [92.808, 13.127], [92.823, 13.135], [92.847, 13.118], [92.848, 13.15], [92.808, 13.154], [92.814, 13.175], [92.849, 13.161], [92.816, 13.184], [92.826, 13.237], [92.849, 13.239], [92.839, 13.246], [92.85, 13.262], [92.855, 13.251], [92.87, 13.258], [92.811, 13.271], [92.841, 13.301], [92.82, 13.311], [92.83, 13.369], [92.849, 13.378], [92.854, 13.359], [92.851, 13.376], [92.87, 13.391], [92.859, 13.384], [92.862, 13.401], [92.858, 13.385], [92.84, 13.388], [92.842, 13.41], [92.87, 13.414], [92.886, 13.367], [92.886, 13.398], [92.889, 13.395], [92.897, 13.413], [92.875, 13.402], [92.873, 13.436], [92.899, 13.429], [92.871, 13.445], [92.869, 13.474], [92.891, 13.479], [92.898, 13.465], [92.902, 13.496], [92.925, 13.499], [92.92, 13.455], [92.935, 13.5], [92.913, 13.512], [92.945, 13.52], [92.938, 13.532], [92.914, 13.52], [92.914, 13.535], [92.965, 13.55], [92.991, 13.518], [93.0, 13.524], [92.987, 13.524], [92.982, 13.569], [93.004, 13.566], [93.011, 13.549], [93.027, 13.579], [93.043, 13.505], [93.034, 13.466], [93.026, 13.461], [93.03, 13.461], [93.037, 13.441], [92.997, 13.441], [92.989, 13.427], [93.039, 13.428], [93.046, 13.405], [93.061, 13.421], [93.068, 13.397], [93.055, 13.382], [93.088, 13.346], [93.071, 13.323], [93.078, 13.296], [93.058, 13.329], [93.038, 13.322], [93.053, 13.381], [93.047, 13.375], [93.013, 13.377], [92.999, 13.396], [93.0, 13.388], [93.003, 13.39], [93.014, 13.371], [93.034, 13.374], [93.031, 13.344], [92.999, 13.35], [92.984, 13.328], [92.973, 13.359], [92.945, 13.351], [92.96, 13.325], [92.965, 13.328], [92.997, 13.315], [92.974, 13.282], [92.992, 13.292], [92.986, 13.299], [93.003, 13.304], [93.021, 13.297], [93.011, 13.277], [93.046, 13.283], [93.044, 13.254], [93.066, 13.274], [93.032, 13.179], [93.034, 13.081], [93.003, 13.028], [92.966, 13.03], [92.975, 13.014], [92.96, 13.014], [92.933, 13.042], [92.957, 13.066], [92.937, 13.065], [92.941, 13.146], [92.935, 13.061], [92.929, 13.073], [92.923, 13.053], [92.899, 13.096], [92.887, 13.093], [92.886, 13.096], [92.886, 13.092], [92.912, 13.067], [92.892, 13.05], [92.915, 13.056], [92.921, 13.04], [92.895, 13.018], [92.91, 13.008], [92.894, 13.011], [92.918, 12.987], [92.933, 12.991], [92.939, 12.969], [92.91, 12.945], [92.906, 12.984], [92.896, 12.995], [92.886, 12.982], [92.883, 13.006], [92.871, 12.936], [92.849, 12.946], [92.851, 12.961], [92.84, 12.95], [92.859, 12.918], [92.845, 12.913], [92.875, 12.908], [92.874, 12.893], [92.9, 12.903], [92.897, 12.927], [92.9, 12.912], [92.922, 12.915], [92.906, 12.887], [92.925, 12.888], [92.926, 12.858], [92.941, 12.856], [92.934, 12.833], [92.949, 12.838], [92.951, 12.795], [92.926, 12.774], [92.95, 12.77], [92.98, 12.709], [92.964, 12.704], [92.957, 12.624], [92.954, 12.623], [92.959, 12.62], [92.975, 12.543], [92.969, 12.497], [92.96, 12.486], [92.946, 12.5], [92.936, 12.481], [92.927, 12.49], [92.934, 12.47], [92.958, 12.473], [92.945, 12.451], [92.912, 12.451], [92.923, 12.435], [92.911, 12.405], [92.884, 12.442], [92.899, 12.451], [92.889, 12.464], [92.896, 12.45], [92.884, 12.442], [92.882, 12.454], [92.869, 12.446], [92.885, 12.431], [92.874, 12.413], [92.86, 12.437], [92.846, 12.423], [92.836, 12.444], [92.836, 12.431], [92.821, 12.434], [92.815, 12.455], [92.819, 12.435], [92.796, 12.438], [92.793, 12.452], [92.787, 12.437], [92.83, 12.428], [92.815, 12.425], [92.834, 12.41], [92.816, 12.417], [92.799, 12.401], [92.816, 12.416], [92.838, 12.409], [92.822, 12.402], [92.82, 12.389], [92.832, 12.401], [92.842, 12.391], [92.823, 12.374], [92.842, 12.392], [92.861, 12.369], [92.845, 12.363], [92.883, 12.357], [92.899, 12.334], [92.859, 12.341], [92.854, 12.327], [92.832, 12.336], [92.857, 12.321], [92.86, 12.335], [92.9, 12.323], [92.856, 12.315], [92.857, 12.317], [92.831, 12.303], [92.82, 12.305], [92.832, 12.292], [92.847, 12.304], [92.854, 12.281], [92.849, 12.302], [92.872, 12.302], [92.863, 12.287], [92.87, 12.295], [92.891, 12.266], [92.875, 12.251], [92.862, 12.264], [92.858, 12.244], [92.865, 12.209], [92.883, 12.198], [92.828, 12.203], [92.839, 12.217], [92.827, 12.203], [92.845, 12.201], [92.84, 12.185], [92.854, 12.191], [92.855, 12.162], [92.844, 12.147], [92.822, 12.178], [92.821, 12.16], [92.801, 12.171], [92.827, 12.156], [92.816, 12.125], [92.801, 12.132], [92.818, 12.113], [92.784, 12.106], [92.801, 12.094], [92.763, 12.063], [92.752, 12.074], [92.763, 12.1], [92.747, 12.074], [92.738, 12.098], [92.749, 12.147], [92.725, 12.096], [92.736, 12.079], [92.723, 12.064], [92.737, 12.078], [92.738, 12.057], [92.782, 12.049], [92.778, 12.024], [92.737, 12.035], [92.74, 12.029], [92.725, 12.023], [92.771, 11.999], [92.764, 11.987], [92.747, 11.989], [92.761, 11.983], [92.734, 11.977], [92.741, 11.99], [92.722, 11.993], [92.732, 11.971], [92.715, 11.967], [92.71, 11.933], [92.714, 11.922], [92.723, 11.931], [92.725, 11.897], [92.704, 11.901], [92.724, 11.891], [92.706, 11.864], [92.723, 11.877], [92.724, 11.857], [92.702, 11.814], [92.701, 11.83], [92.695, 11.813], [92.655, 11.834], [92.692, 11.814], [92.67, 11.798], [92.672, 11.783], [92.698, 11.813], [92.706, 11.793], [92.7, 11.81], [92.73, 11.855], [92.744, 11.932], [92.783, 11.937], [92.79, 11.885], [92.754, 11.701], [92.743, 11.712], [92.745, 11.69], [92.717, 11.705], [92.711, 11.693], [92.696, 11.719], [92.69, 11.698], [92.682, 11.714], [92.686, 11.692], [92.706, 11.7], [92.708, 11.671], [92.66, 11.652], [92.674, 11.624], [92.681, 11.638], [92.689, 11.626], [92.691, 11.627], [92.69, 11.624], [92.691, 11.622], [92.69, 11.621], [92.686, 11.603], [92.702, 11.618], [92.694, 11.653], [92.71, 11.643], [92.728, 11.658], [92.714, 11.678], [92.756, 11.665], [92.738, 11.639], [92.754, 11.614], [92.71, 11.477], [92.697, 11.506], [92.667, 11.502], [92.645, 11.523], [92.646, 11.572], [92.632, 11.581], [92.616, 11.563], [92.615, 11.568], [92.614, 11.563], [92.6, 11.568], [92.601, 11.586], [92.611, 11.581], [92.602, 11.609], [92.627, 11.626], [92.635, 11.615], [92.645, 11.635], [92.63, 11.652], [92.63, 11.628], [92.608, 11.632], [92.598, 11.649], [92.59, 11.708], [92.604, 11.707], [92.587, 11.717], [92.591, 11.738], [92.558, 11.692], [92.559, 11.773], [92.55, 11.802], [92.541, 11.786], [92.529, 11.795], [92.55, 11.81], [92.532, 11.806], [92.545, 11.843], [92.524, 11.807], [92.506, 11.825], [92.52, 11.84], [92.508, 11.841], [92.514, 11.872], [92.528, 11.872], [92.52, 11.899], [92.539, 11.904], [92.54, 11.931], [92.564, 11.951], [92.581, 11.931], [92.583, 11.877], [92.599, 11.9], [92.602, 11.884]], [[92.725, 12.052], [92.714, 12.047], [92.71, 12.031], [92.725, 12.052]], [[92.843, 12.472], [92.837, 12.493], [92.823, 12.5], [92.834, 12.488], [92.834, 12.488], [92.834, 12.488], [92.836, 12.487], [92.835, 12.487], [92.839, 12.476], [92.843, 12.472]], [[92.921, 12.469], [92.919, 12.478], [92.908, 12.467], [92.921, 12.469]], [[92.868, 12.883], [92.842, 12.877], [92.843, 12.892], [92.841, 12.891], [92.84, 12.861], [92.849, 12.872], [92.85, 12.873], [92.851, 12.874], [92.854, 12.877], [92.853, 12.874], [92.862, 12.878], [92.862, 12.864], [92.868, 12.883]], [[92.733, 12.793], [92.738, 12.779], [92.739, 12.791], [92.733, 12.793]], [[92.751, 12.233], [92.762, 12.23], [92.763, 12.205], [92.771, 12.242], [92.751, 12.233]], [[92.851, 13.237], [92.853, 13.227], [92.855, 13.234], [92.851, 13.237]], [[92.858, 13.207], [92.863, 13.185], [92.862, 13.207], [92.858, 13.207]], [[92.89, 13.395], [92.906, 13.382], [92.925, 13.39], [92.89, 13.395]], [[92.883, 13.048], [92.858, 13.08], [92.844, 13.051], [92.86, 13.066], [92.864, 13.044], [92.883, 13.048]], [[92.884, 13.106], [92.884, 13.106], [92.873, 13.103], [92.884, 13.106]], [[92.79, 12.466], [92.79, 12.469], [92.772, 12.471], [92.79, 12.466]], [[92.84, 12.219], [92.841, 12.219], [92.803, 12.233], [92.84, 12.219]], [[92.715, 11.584], [92.73, 11.566], [92.74, 11.591], [92.726, 11.604], [92.715, 11.584]]], [[[93.014, 11.85], [93.072, 11.834], [93.042, 11.81], [93.014, 11.828], [93.014, 11.85]]], [[[93.068, 13.653], [93.044, 13.621], [93.045, 13.647], [93.068, 13.653]]], [[[92.964, 12.05], [92.975, 12.016], [92.973, 12.043], [93.015, 12.027], [93.007, 12.003], [93.054, 11.903], [93.044, 11.884], [93.025, 11.886], [92.992, 11.935], [93.004, 11.948], [93.015, 11.938], [93.007, 11.958], [92.975, 11.946], [92.958, 11.981], [92.923, 11.998], [92.949, 12.014], [92.964, 12.05]]], [[[92.989, 12.157], [92.996, 12.132], [93.028, 12.164], [93.034, 12.1], [93.054, 12.078], [93.043, 12.043], [93.005, 12.077], [93.003, 12.089], [92.994, 12.044], [92.956, 12.073], [92.972, 12.087], [92.958, 12.087], [92.958, 12.109], [93.001, 12.101], [92.999, 12.111], [92.965, 12.118], [92.954, 12.136], [92.957, 12.15], [92.989, 12.157]]], [[[93.048, 8.441], [93.027, 8.447], [93.033, 8.473], [93.048, 8.441]]], [[[93.02, 13.674], [93.029, 13.625], [93.001, 13.649], [92.974, 13.644], [92.98, 13.667], [93.02, 13.674]]], [[[93.008, 12.998], [92.981, 12.968], [92.982, 12.932], [92.953, 12.934], [92.957, 12.949], [92.973, 12.946], [92.954, 12.958], [92.958, 12.989], [92.972, 12.97], [92.984, 12.994], [93.008, 12.998]]], [[[92.957, 12.434], [92.932, 12.36], [92.916, 12.363], [92.931, 12.418], [92.947, 12.416], [92.957, 12.434]]], [[[92.934, 12.311], [92.943, 12.275], [92.922, 12.229], [92.92, 12.269], [92.9, 12.271], [92.901, 12.288], [92.913, 12.304], [92.928, 12.278], [92.934, 12.311]]], [[[92.936, 13.027], [92.942, 12.994], [92.913, 13.012], [92.921, 13.031], [92.936, 13.027]]], [[[92.94, 12.223], [92.932, 12.196], [92.924, 12.216], [92.94, 12.223]]], [[[92.901, 12.262], [92.914, 12.221], [92.891, 12.231], [92.877, 12.209], [92.87, 12.245], [92.885, 12.239], [92.901, 12.262]]], [[[92.904, 13.599], [92.883, 13.574], [92.885, 13.598], [92.904, 13.599]]], [[[92.894, 12.407], [92.882, 12.374], [92.843, 12.401], [92.894, 12.407]]], [[[92.886, 12.924], [92.863, 12.918], [92.858, 12.932], [92.886, 12.924]]], [[[92.836, 12.423], [92.858, 12.413], [92.838, 12.411], [92.836, 12.423]]], [[[92.844, 13.435], [92.821, 13.421], [92.841, 13.45], [92.844, 13.435]]], [[[92.818, 9.212], [92.827, 9.138], [92.799, 9.121], [92.727, 9.125], [92.714, 9.154], [92.72, 9.219], [92.764, 9.216], [92.771, 9.259], [92.818, 9.212]]], [[[92.794, 12.911], [92.792, 12.892], [92.774, 12.906], [92.794, 12.911]]], [[[92.767, 11.965], [92.758, 11.945], [92.735, 11.952], [92.748, 11.969], [92.767, 11.965]]], [[[92.764, 12.267], [92.752, 12.278], [92.762, 12.294], [92.764, 12.267]]], [[[92.71, 12.829], [92.725, 12.748], [92.717, 12.756], [92.717, 12.719], [92.694, 12.798], [92.71, 12.829]]], [[[92.698, 12.989], [92.719, 12.981], [92.71, 12.946], [92.721, 12.945], [92.721, 12.89], [92.702, 12.877], [92.719, 12.875], [92.7, 12.84], [92.671, 12.838], [92.688, 12.817], [92.667, 12.783], [92.647, 12.862], [92.679, 12.942], [92.67, 12.966], [92.698, 12.989]]], [[[92.708, 11.299], [92.696, 11.31], [92.721, 11.333], [92.708, 11.299]]], [[[92.715, 13.093], [92.699, 13.07], [92.695, 13.097], [92.715, 13.093]]], [[[92.715, 12.296], [92.71, 12.23], [92.699, 12.275], [92.704, 12.3], [92.715, 12.296]]], [[[92.636, 11.514], [92.674, 11.49], [92.685, 11.436], [92.671, 11.415], [92.636, 11.417], [92.634, 11.404], [92.675, 11.4], [92.691, 11.375], [92.664, 11.353], [92.598, 11.345], [92.58, 11.367], [92.586, 11.4], [92.622, 11.404], [92.611, 11.472], [92.636, 11.514]]], [[[92.685, 12.554], [92.678, 12.506], [92.662, 12.533], [92.685, 12.554]]], [[[92.617, 11.56], [92.61, 11.531], [92.601, 11.555], [92.617, 11.56]]], [[[92.603, 11.976], [92.597, 11.925], [92.586, 11.975], [92.603, 11.976]]], [[[92.396, 10.779], [92.396, 10.786], [92.417, 10.796], [92.425, 10.827], [92.457, 10.842], [92.455, 10.867], [92.497, 10.897], [92.509, 10.875], [92.518, 10.877], [92.503, 10.898], [92.522, 10.899], [92.53, 10.867], [92.542, 10.859], [92.534, 10.89], [92.562, 10.862], [92.567, 10.81], [92.549, 10.808], [92.579, 10.785], [92.562, 10.803], [92.571, 10.811], [92.587, 10.788], [92.598, 10.679], [92.58, 10.681], [92.582, 10.658], [92.539, 10.615], [92.542, 10.595], [92.57, 10.579], [92.533, 10.519], [92.513, 10.511], [92.435, 10.549], [92.388, 10.532], [92.419, 10.616], [92.401, 10.659], [92.381, 10.67], [92.373, 10.783], [92.384, 10.796], [92.395, 10.786], [92.396, 10.779]], [[92.397, 10.763], [92.397, 10.762], [92.4, 10.764], [92.397, 10.763]], [[92.404, 10.766], [92.408, 10.755], [92.419, 10.773], [92.404, 10.766]], [[92.501, 10.869], [92.477, 10.862], [92.508, 10.863], [92.501, 10.869]]], [[[92.543, 11.606], [92.544, 11.591], [92.572, 11.588], [92.554, 11.558], [92.527, 11.554], [92.528, 11.596], [92.543, 11.606]]], [[[92.56, 11.537], [92.565, 11.517], [92.551, 11.529], [92.56, 11.537]]], [[[92.269, 11.585], [92.273, 11.535], [92.26, 11.517], [92.21, 11.531], [92.203, 11.587], [92.269, 11.585]]], [[[88.892, 21.581], [88.906, 21.548], [88.876, 21.534], [88.831, 21.551], [88.83, 21.603], [88.892, 21.581]]], [[[88.795, 21.582], [88.742, 21.562], [88.715, 21.572], [88.718, 21.644], [88.684, 21.684], [88.693, 21.72], [88.708, 21.681], [88.744, 21.652], [88.775, 21.649], [88.795, 21.582]]], [[[88.645, 21.788], [88.586, 21.802], [88.58, 21.835], [88.637, 21.922], [88.67, 21.914], [88.645, 21.788]]], [[[88.625, 21.774], [88.63, 21.736], [88.611, 21.705], [88.597, 21.716], [88.622, 21.74], [88.587, 21.757], [88.589, 21.777], [88.625, 21.774]]], [[[88.579, 21.729], [88.585, 21.748], [88.569, 21.77], [88.582, 21.776], [88.587, 21.753], [88.619, 21.738], [88.58, 21.728], [88.599, 21.69], [88.603, 21.613], [88.529, 21.657], [88.506, 21.758], [88.542, 21.811], [88.573, 21.788], [88.56, 21.768], [88.579, 21.729]]], [[[88.537, 21.578], [88.548, 21.537], [88.534, 21.527], [88.485, 21.552], [88.496, 21.599], [88.537, 21.578]]], [[[88.487, 21.834], [88.5, 21.812], [88.485, 21.799], [88.453, 21.811], [88.487, 21.834]]], [[[88.428, 21.702], [88.413, 21.693], [88.411, 21.656], [88.432, 21.62], [88.397, 21.59], [88.381, 21.663], [88.404, 21.717], [88.369, 21.727], [88.396, 21.755], [88.428, 21.702]]], [[[88.349, 21.683], [88.344, 21.628], [88.309, 21.608], [88.307, 21.706], [88.349, 21.683]]], [[[88.303, 21.74], [88.292, 21.712], [88.28, 21.735], [88.289, 21.779], [88.303, 21.74]]], [[[88.181, 21.69], [88.204, 21.726], [88.207, 21.709], [88.181, 21.69]]], [[[88.197, 21.541], [88.176, 21.55], [88.167, 21.603], [88.197, 21.541]]], [[[88.171, 21.809], [88.171, 21.74], [88.153, 21.682], [88.134, 21.678], [88.145, 21.639], [88.119, 21.625], [88.057, 21.639], [88.041, 21.65], [88.041, 21.676], [88.102, 21.832], [88.136, 21.875], [88.171, 21.809]]], [[[88.138, 21.923], [88.127, 21.9], [88.116, 21.923], [88.138, 21.923]]], [[[86.787, 20.388], [86.793, 20.493], [86.808, 20.453], [86.787, 20.388]]], [[[79.224, 9.247], [79.199, 9.23], [79.179, 9.238], [79.181, 9.25], [79.224, 9.247]]], [[[79.084, 9.2], [79.057, 9.198], [79.07, 9.211], [79.084, 9.2]]], [[[73.646, 10.06], [73.634, 10.072], [73.65, 10.103], [73.646, 10.06]]], [[[73.042, 8.265], [73.017, 8.277], [73.047, 8.277], [73.078, 8.325], [73.042, 8.265]]], [[[72.816, 21.653], [72.82, 21.624], [72.728, 21.586], [72.702, 21.592], [72.642, 21.532], [72.575, 21.532], [72.58, 21.586], [72.6, 21.578], [72.599, 21.549], [72.617, 21.547], [72.607, 21.588], [72.627, 21.629], [72.816, 21.653]]], [[[72.646, 10.579], [72.649, 10.565], [72.616, 10.543], [72.646, 10.579]]], [[[70.057, 22.54], [70.048, 22.524], [70.035, 22.536], [70.04, 22.553], [70.057, 22.54]]], [[[69.657, 22.425], [69.636, 22.406], [69.59, 22.437], [69.629, 22.459], [69.657, 22.425]]], [[[69.115, 22.467], [69.108, 22.437], [69.084, 22.422], [69.094, 22.461], [69.115, 22.467]]], [[[69.116, 22.467], [69.145, 22.475], [69.145, 22.45], [69.116, 22.467]]], [[[68.533, 23.689], [68.53, 23.676], [68.539, 23.686], [68.547, 23.675], [68.529, 23.674], [68.522, 23.653], [68.533, 23.689]]]]}}]}